street,city,zipcode,region,abbr,country,complete,continent
213 North Broadway Street,Abilene,67410,Kansas,KS,United States,"213 North Broadway Street, Abilene KS 67410",North America
2442 Cedar Street,Abilene,79601,Texas,TX,United States,"2442 Cedar Street, Abilene TX 79601",North America
111 N. Well Road,Ajo,85321,Arizona,AZ,United States,"111 N. Well Road, Ajo AZ 85321",North America
34100 Albion Street,Albion,95410,California,CA,United States,"34100 Albion Street, Albion CA 95410",North America
6400 Wyoming Blvd. NE,Albuquerque,87109,New Mexico,NM,United States,"6400 Wyoming Blvd. NE, Albuquerque NM 87109",North America
"P.O. Box 180, Alexandria",Alexandria,36250,Alabama,AL,United States,"P.O. Box 180, Alexandria, Alexandria AL 36250",North America
300 Rivercrest Boulevard,Allen,75002,Texas,TX,United States,"300 Rivercrest Boulevard, Allen TX 75002",North America
213 East 9th Street,Alma,66401,Kansas,KS,United States,"213 East 9th Street, Alma KS 66401",North America
3303 South Third Avenue,Alpena,49707,Michigan,MI,United States,"3303 South Third Avenue, Alpena MI 49707",North America
401 South High School Street,Altamont,67330,Kansas,KS,United States,"401 South High School Street, Altamont KS 67330",North America
901 Duss Avenue,Ambridge,15003,Pennsylvania,PA,United States,"901 Duss Avenue, Ambridge PA 15003",North America
909 Duss Avenue,Ambridge,15003,Pennsylvania,PA,United States,"909 Duss Avenue, Ambridge PA 15003",North America
8500 Otterburn Road,Amelia,23002,Virginia,VA,United States,"8500 Otterburn Road, Amelia VA 23002",North America
1765 West Cerritos,Anaheim,92804,California,CA,United States,"1765 West Cerritos, Anaheim CA 92804",North America
1101 Golden Bear Drive,Anchorage,99504,Alaska,AK,United States,"1101 Golden Bear Drive, Anchorage AK 99504",North America
5530 E. Northern Lights Blvd. #1,Anchorage,99504,Alaska,AK,United States,"5530 E. Northern Lights Blvd. #1, Anchorage AK 99504",North America
9251 Lake Otis Pkwy,Anchorage,99507,Alaska,AK,United States,"9251 Lake Otis Pkwy, Anchorage AK 99507",North America
1432 North Andover Road,Andover,67002,Kansas,KS,United States,"1432 North Andover Road, Andover KS 67002",North America
1107 Rosamond Parkway,Anna,75409-0128,Texas,TX,United States,"1107 Rosamond Parkway, Anna TX 75409-0128",North America
2525 S. Ironwood Drive,Apache Junction,85120,Arizona,AZ,United States,"2525 S. Ironwood Drive, Apache Junction AZ 85120",North America
945 W. Apache Trail,Apache Junction,85220,Arizona,AZ,United States,"945 W. Apache Trail, Apache Junction AZ 85220",North America
315 East Montgomery Avenue,Ardmore,19003,Pennsylvania,PA,United States,"315 East Montgomery Avenue, Ardmore PA 19003",North America
2000 Sam Houston Drive,Arlington,76014,Texas,TX,United States,"2000 Sam Houston Drive, Arlington TX 76014",North America
6600 Little Falls Road,Arlington,22213,Virginia,VA,United States,"6600 Little Falls Road, Arlington VA 22213",North America
705 North 9th Street,Arlington,68002,Nebraska,NE,United States,"705 North 9th Street, Arlington NE 68002",North America
818 West Park Row Drive,Arlington,76013,Texas,TX,United States,"818 West Park Row Drive, Arlington TX 76013",North America
12 Tripp Lane,Armonk,10504,New York,NY,United States,"12 Tripp Lane, Armonk NY 10504",North America
46999 N. 5th Street,Ash Fork,86320,Arizona,AZ,United States,"46999 N. 5th Street, Ash Fork AZ 86320",North America
34-12 36th Avenue,Astoria,11106,New York,NY,United States,"34-12 36th Avenue, Astoria NY 11106",North America
3338 East Main Street,Attica,14011,New York,NY,United States,"3338 East Main Street, Attica NY 14011",North America
500 W. Midland Road,Auburn,48611,Michigan,MI,United States,"500 W. Midland Road, Auburn MI 48611",North America
3075 Shimmons Road,Auburn Hills,48326,Michigan,MI,United States,"3075 Shimmons Road, Auburn Hills MI 48326",North America
11400 North Mo-Pac Expressway,Austin,78759,Texas,TX,United States,"11400 North Mo-Pac Expressway, Austin TX 78759",North America
13212 North Lamar Blvd.,Austin,78753,Texas,TX,United States,"13212 North Lamar Blvd., Austin TX 78753",North America
1500 Royston Lane Ste A,Austin,78664,Texas,TX,United States,"1500 Royston Lane Ste A, Austin TX 78664",North America
2206 Prather Lane,Austin,78704,Texas,TX,United States,"2206 Prather Lane, Austin TX 78704",North America
2305 Speedway Stop C1160,Austin,78712,Texas,TX,United States,"2305 Speedway Stop C1160, Austin TX 78712",North America
300 E. Huntland Drive,Austin,78752,Texas,TX,United States,"300 E. Huntland Drive, Austin TX 78752",North America
11650 West Whyman Avenue,Avondale,85323,Arizona,AZ,United States,"11650 West Whyman Avenue, Avondale AZ 85323",North America
510 N. Central Ave.,Avondale,85323,Arizona,AZ,United States,"510 N. Central Ave., Avondale AZ 85323",North America
515 Breezy Circle,Bagdad,86321,Arizona,AZ,United States,"515 Breezy Circle, Bagdad AZ 86321",North America
128 W. Franklin Street,Baltimore,21201,Maryland,MD,United States,"128 W. Franklin Street, Baltimore MD 21201",North America
1400 W. Cold Spring Lane,Baltimore,21209,Maryland,MD,United States,"1400 W. Cold Spring Lane, Baltimore MD 21209",North America
2453 Maryland Avenue,Baltimore,21218,Maryland,MD,United States,"2453 Maryland Avenue, Baltimore MD 21218",North America
430 South First Street,Barstow,92311,California,CA,United States,"430 South First Street, Barstow CA 92311",North America
5750 Parkview Church Road,Baton Rouge,70816,Louisiana,LA,United States,"5750 Parkview Church Road, Baton Rouge LA 70816",North America
4250 Richmond Road,Beachwood,44122,Ohio,OH,United States,"4250 Richmond Road, Beachwood OH 44122",North America
4400 Martin Luther King Parkway,Beaumont,77710,Texas,TX,United States,"4400 Martin Luther King Parkway, Beaumont TX 77710",North America
500 Blackhawk Road,Beaver Falls,15010,Pennsylvania,PA,United States,"500 Blackhawk Road, Beaver Falls PA 15010",North America
4650 Bissonnet Street,Bellaire,77401,Texas,TX,United States,"4650 Bissonnet Street, Bellaire TX 77401",North America
4105 Front Mountain Road,Belleville,17004,Pennsylvania,PA,United States,"4105 Front Mountain Road, Belleville PA 17004",North America
600 Lake Road,Belton,76513,Texas,TX,United States,"600 Lake Road, Belton TX 76513",North America
107 North Nelson,Bennington,67422,Kansas,KS,United States,"107 North Nelson, Bennington KS 67422",North America
360 S. Patagonia,Benson,85602,Arizona,AZ,United States,"360 S. Patagonia, Benson AZ 85602",North America
6623 North Mueller Avenue,Bethany,73008,Oklahoma,OK,United States,"6623 North Mueller Avenue, Bethany OK 73008",North America
58 Harrison Lane,Bethlehem,06751,Connecticut,CT,United States,"58 Harrison Lane, Bethlehem CT 06751",North America
241 Moreno Drive,Beverly Hills,90212,California,CA,United States,"241 Moreno Drive, Beverly Hills CA 90212",North America
351 Maple Lane,Big Bear City,92315,California,CA,United States,"351 Maple Lane, Big Bear City CA 92315",North America
12450 Church Street,Birch Run,48415,Michigan,MI,United States,"12450 Church Street, Birch Run MI 48415",North America
325 School Terrace Rd,Bisbee,85603,Arizona,AZ,United States,"325 School Terrace Rd, Bisbee AZ 85603",North America
4001 West 102nd Street,Bloomington,55437,Minnesota,MN,United States,"4001 West 102nd Street, Bloomington MN 55437",North America
11020 CR 504,Blue Ridge,75424,Texas,TX,United States,"11020 CR 504, Blue Ridge TX 75424",North America
190 Seventh Street,Bohemia,11716-1331,New York,NY,United States,"190 Seventh Street, Bohemia NY 11716-1331",North America
825 West Highway 90,Bonifay,32425,Florida,FL,United States,"825 West Highway 90, Bonifay FL 32425",North America
78 Avenue Louis Pasteur,Boston,02115,Massachusetts,MA,United States,"78 Avenue Louis Pasteur, Boston MA 02115",North America
315 W. Fifth Street,Bowie,85605,Arizona,AZ,United States,"315 W. Fifth Street, Bowie AZ 85605",North America
3145 East Birch St.,Brea,92821-6250,California,CA,United States,"3145 East Birch St., Brea CA 92821-6250",North America
2839 Bedford Avenue,Brooklyn,11210,New York,NY,United States,"2839 Bedford Avenue, Brooklyn NY 11210",North America
400 Pennsylvania Avenue,Brooklyn,11207,New York,NY,United States,"400 Pennsylvania Avenue, Brooklyn NY 11207",North America
5800 20th Avenue,Brooklyn,11204,New York,NY,United States,"5800 20th Avenue, Brooklyn NY 11204",North America
675 4th Avenue,Brooklyn,11232,New York,NY,United States,"675 4th Avenue, Brooklyn NY 11232",North America
362 Schermerhorn St.,Brooklyn,11217,New York,NY,United States,"362 Schermerhorn St., Brooklyn NY 11217",North America
412 East Anderson Road,Brookville,67425,Kansas,KS,United States,"412 East Anderson Road, Brookville KS 67425",North America
24787 Van Horn Road,Brownstown,48134,Michigan,MI,United States,"24787 Van Horn Road, Brownstown MI 48134",North America
314 West Los Ebanos Boulevard,Brownsville,78520,Texas,TX,United States,"314 West Los Ebanos Boulevard, Brownsville TX 78520",North America
3205 South Dakota Avenue,Brownsville,78521,Texas,TX,United States,"3205 South Dakota Avenue, Brownsville TX 78521",North America
20050 W. Indian School Road,Buckeye,85396,Arizona,AZ,United States,"20050 W. Indian School Road, Buckeye AZ 85396",North America
3000 S. Apache Road,Buckeye,85326,Arizona,AZ,United States,"3000 S. Apache Road, Buckeye AZ 85326",North America
2424 North Outer Drive,Buena Vista Township,48601,Michigan,MI,United States,"2424 North Outer Drive, Buena Vista Township MI 48601",North America
3945 East Holland,Buena Vista Township,48601,Michigan,MI,United States,"3945 East Holland, Buena Vista Township MI 48601",North America
2251 Highway 95,Bullhead City,86442,Arizona,AZ,United States,"2251 Highway 95, Bullhead City AZ 86442",North America
256 East 800 South,Bunker Hill,46914,Indiana,IN,United States,"256 East 800 South, Bunker Hill IN 46914",North America
109 West Kramer Road,Burkburnett,76354,Texas,TX,United States,"109 West Kramer Road, Burkburnett TX 76354",North America
3218 Hiddenwood Lane,Burlington,27215,North Carolina,NC,United States,"3218 Hiddenwood Lane, Burlington NC 27215",North America
"350 Riverbank,",Burlington,08016,New Jersey,NJ,United States,"350 Riverbank,, Burlington NJ 08016",North America
550 County Road 307,Caldwell,77836,Texas,TX,United States,"550 County Road 307, Caldwell TX 77836",North America
1326 Montezuma Castle Rd.,Camp Verde,86322,Arizona,AZ,United States,"1326 Montezuma Castle Rd., Camp Verde AZ 86322",North America
121 Wheeler Street,Campobello,29322,South Carolina,SC,United States,"121 Wheeler Street, Campobello SC 29322",North America
143 North Pearl St.,Canandaigua,14424,New York,NY,United States,"143 North Pearl St., Canandaigua NY 14424",North America
75 Academy Dr,Candler,28715,North Carolina,NC,United States,"75 Academy Dr, Candler NC 28715",North America
109 South Main Street,Canton,67428,Kansas,KS,United States,"109 South Main Street, Canton KS 67428",North America
6675 South Desert Boulevard,Canutillo,79932,Texas,TX,United States,"6675 South Desert Boulevard, Canutillo TX 79932",North America
623 W. Penn St.,Carlisle,17013,Pennsylvania,PA,United States,"623 W. Penn St., Carlisle PA 17013",North America
700 Gardner Lacy Road,Carolina Forest,29579,South Carolina,SC,United States,"700 Gardner Lacy Road, Carolina Forest SC 29579",North America
3197 Carrabassett Drive,Carrabassett Valley,04947,Maine,ME,United States,"3197 Carrabassett Drive, Carrabassett Valley ME 04947",North America
1376 E. Cottonwood Lane,Casa Grande,85122,Arizona,AZ,United States,"1376 E. Cottonwood Lane, Casa Grande AZ 85122",North America
1556 N. Arizola Road,Casa Grande,85122,Arizona,AZ,United States,"1556 N. Arizola Road, Casa Grande AZ 85122",North America
2730 N Trekell Road,Casa Grande,85122,Arizona,AZ,United States,"2730 N Trekell Road, Casa Grande AZ 85122",North America
2730 N. Trekell Road,Casa Grande,85122,Arizona,AZ,United States,"2730 N. Trekell Road, Casa Grande AZ 85122",North America
708 Locust Street,Cawker City,67430,Kansas,KS,United States,"708 Locust Street, Cawker City KS 67430",North America
1300 State Street,Cayce,29033,South Carolina,SC,United States,"1300 State Street, Cayce SC 29033",North America
3455 North Preston Road,Celina,75009,Texas,TX,United States,"3455 North Preston Road, Celina TX 75009",North America
500 South Broadway,Center,81125,Colorado,CO,United States,"500 South Broadway, Center CO 81125",North America
17700 Dumont Ave,Cerritos,90703,California,CA,United States,"17700 Dumont Ave, Cerritos CA 90703",North America
200 East St. Bernard Hwy,Chalmette,70043,Louisiana,LA,United States,"200 East St. Bernard Hwy, Chalmette LA 70043",North America
201 8th Street,Chalmette,70043,Louisiana,LA,United States,"201 8th Street, Chalmette LA 70043",North America
1150 W. Erie Street,Chandler,85224,Arizona,AZ,United States,"1150 W. Erie Street, Chandler AZ 85224",North America
2200 N. Arizona Ave #17,Chandler,85225,Arizona,AZ,United States,"2200 N. Arizona Ave #17, Chandler AZ 85225",North America
822 North Marshall,Chapman,67431,Kansas,KS,United States,"822 North Marshall, Chapman KS 67431",North America
63466 Boat Basin Road,Charleston,97420,Oregon,OR,United States,"63466 Boat Basin Road, Charleston OR 97420",North America
240 Medford Street,Charlestown,02129,Massachusetts,MA,United States,"240 Medford Street, Charlestown MA 02129",North America
2001 Alleghany Street,Charlotte,28208,North Carolina,NC,United States,"2001 Alleghany Street, Charlotte NC 28208",North America
313 East Ave C,Chase,67524,Kansas,KS,United States,"313 East Ave C, Chase KS 67524",North America
171 Baylor School Road,Chattanooga,37405,Tennessee,TN,United States,"171 Baylor School Road, Chattanooga TN 37405",North America
299 Everett Avenue,Chelsea,02150,Massachusetts,MA,United States,"299 Everett Avenue, Chelsea MA 02150",North America
100 West 6th Avenue,Cheney,67025,Kansas,KS,United States,"100 West 6th Avenue, Cheney KS 67025",North America
506 S Smelter St,Cherokee,66724,Kansas,KS,United States,"506 S Smelter St, Cherokee KS 66724",North America
3231 Old Furnace Road,Chesnee,29323,South Carolina,SC,United States,"3231 Old Furnace Road, Chesnee SC 29323",North America
1616 S Spaulding Ave,Chicago,60623,Illinois,IL,United States,"1616 S Spaulding Ave, Chicago IL 60623",North America
211 S. Laflin Street,Chicago,60607,Illinois,IL,United States,"211 S. Laflin Street, Chicago IL 60607",North America
2714 W. Augusta Blvd,Chicago,60622,Illinois,IL,United States,"2714 W. Augusta Blvd, Chicago IL 60622",North America
3120 S Kostner Ave,Chicago,60623,Illinois,IL,United States,"3120 S Kostner Ave, Chicago IL 60623",North America
3235 N. Leclaire Avenue,Chicago,60641,Illinois,IL,United States,"3235 N. Leclaire Avenue, Chicago IL 60641",North America
42 West Madison Street,Chicago,60602,Illinois,IL,United States,"42 West Madison Street, Chicago IL 60602",North America
5501 N. Kedzie Avenue,Chicago,60625,Illinois,IL,United States,"5501 N. Kedzie Avenue, Chicago IL 60625",North America
59 W. North Avenue.,Chicago,60610,Illinois,IL,United States,"59 W. North Avenue., Chicago IL 60610",North America
6201 S. Stewart Ave.,Chicago,60621,Illinois,IL,United States,"6201 S. Stewart Ave., Chicago IL 60621",North America
6301 S. Halsted Street,Chicago,60621,Illinois,IL,United States,"6301 S. Halsted Street, Chicago IL 60621",North America
PO BOX 804835,Chicago,60680,Illinois,IL,United States,"PO BOX 804835, Chicago IL 60680",North America
1475 East Avenue,Chico,95926,California,CA,United States,"1475 East Avenue, Chico CA 95926",North America
4586 Main Street,Chincoteague,23336,Virginia,VA,United States,"4586 Main Street, Chincoteague VA 23336",North America
RRTP #PTT HC 61 Box 1480,Chinle,86503,Arizona,AZ,United States,"RRTP #PTT HC 61 Box 1480, Chinle AZ 86503",North America
14255 Peyton Avenue,Chino Hills,91709,California,CA,United States,"14255 Peyton Avenue, Chino Hills CA 91709",North America
760 E. Center Street,Chino Valley,86323,Arizona,AZ,United States,"760 E. Center Street, Chino Valley AZ 86323",North America
5110 W. 24th Street,Cicero,60804,Illinois,IL,United States,"5110 W. 24th Street, Cicero IL 60804",North America
201 E. Stuart Roosa Avenue,Claremore,74019,Oklahoma,OK,United States,"201 E. Stuart Roosa Avenue, Claremore OK 74019",North America
2900 Community College Avenue,Cleveland,44115,Ohio,OH,United States,"2900 Community College Avenue, Cleveland OH 44115",North America
615 Ellis,Coffeyville,67337,Kansas,KS,United States,"615 Ellis, Coffeyville KS 67337",North America
600 East Garfield Street,Coldwater,67029,Kansas,KS,United States,"600 East Garfield Street, Coldwater KS 67029",North America
901 Cheek-Sparger Road,Colleyville,76034,Texas,TX,United States,"901 Cheek-Sparger Road, Colleyville TX 76034",North America
255 North Cottonwood Street,Colorado City,86021,Arizona,AZ,United States,"255 North Cottonwood Street, Colorado City AZ 86021",North America
6831 Brookfield Road,Columbia,29206,South Carolina,SC,United States,"6831 Brookfield Road, Columbia SC 29206",North America
9142 FM 78,Converse,78109,Texas,TX,United States,"9142 FM 78, Converse TX 78109",North America
1290B W Vah Ki Inn Road,Coolidge,85128,Arizona,AZ,United States,"1290B W Vah Ki Inn Road, Coolidge AZ 85128",North America
684 W. Northern Ave,Coolidge,85128,Arizona,AZ,United States,"684 W. Northern Ave, Coolidge AZ 85128",North America
185 West Parkway Boulevard,Coppell,75019,Texas,TX,United States,"185 West Parkway Boulevard, Coppell TX 75019",North America
1400 NW Buchanan Ave,Corvallis,97330,Oregon,OR,United States,"1400 NW Buchanan Ave, Corvallis OR 97330",North America
125 S. 6th Street,Cottonwood,86326,Arizona,AZ,United States,"125 S. 6th Street, Cottonwood AZ 86326",North America
1801 East Fir Street,Cottonwood,86326,Arizona,AZ,United States,"1801 East Fir Street, Cottonwood AZ 86326",North America
219 Broadway Street,Cottonwood Falls,66845,Kansas,KS,United States,"219 Broadway Street, Cottonwood Falls KS 66845",North America
17 South Wood Street,Council Grove,66846,Kansas,KS,United States,"17 South Wood Street, Council Grove KS 66846",North America
97 Bochicchio Blvd,Covington Township,18444,Pennsylvania,PA,United States,"97 Bochicchio Blvd, Covington Township PA 18444",North America
1500 South Sangamon Street,Crete,60417,Illinois,IL,United States,"1500 South Sangamon Street, Crete IL 60417",North America
13157 N. Olive Spur Road,Creve Coeur,63141,Missouri,MO,United States,"13157 N. Olive Spur Road, Creve Coeur MO 63141",North America
22602 Hempstead Freeway,Cypress,77429,Texas,TX,United States,"22602 Hempstead Freeway, Cypress TX 77429",North America
1435 Roanoke Road,Daleville,24083,Virginia,VA,United States,"1435 Roanoke Road, Daleville VA 24083",North America
100 South Glasgow Road,Dallas,75214,Texas,TX,United States,"100 South Glasgow Road, Dallas TX 75214",North America
15920 Seagoville Road,Dallas,75253,Texas,TX,United States,"15920 Seagoville Road, Dallas TX 75253",North America
1819 West Wheatland Road,Dallas,75232,Texas,TX,United States,"1819 West Wheatland Road, Dallas TX 75232",North America
2101 Millmar Drive,Dallas,75228,Texas,TX,United States,"2101 Millmar Drive, Dallas TX 75228",North America
2120 W. Jefferson Blvd,Dallas,75208,Texas,TX,United States,"2120 W. Jefferson Blvd, Dallas TX 75208",North America
2200 Dennison Street,Dallas,75212,Texas,TX,United States,"2200 Dennison Street, Dallas TX 75212",North America
3000 Martin L. King Jr. Boulevard,Dallas,75215,Texas,TX,United States,"3000 Martin L. King Jr. Boulevard, Dallas TX 75215",North America
3120 North Haskell Avenue,Dallas,75204,Texas,TX,United States,"3120 North Haskell Avenue, Dallas TX 75204",North America
3601 South Marsalis Avenue,Dallas,75216,Texas,TX,United States,"3601 South Marsalis Avenue, Dallas TX 75216",North America
3606 South Westmoreland Road,Dallas,75233,Texas,TX,United States,"3606 South Westmoreland Road, Dallas TX 75233",North America
4505 Ridgeside Drive,Dallas,75244,Texas,TX,United States,"4505 Ridgeside Drive, Dallas TX 75244",North America
7777 Forney Road,Dallas,75227-2505,Texas,TX,United States,"7777 Forney Road, Dallas TX 75227-2505",North America
8928 Palisade Drive,Dallas,75217,Texas,TX,United States,"8928 Palisade Drive, Dallas TX 75217",North America
9733 Old Seagoville Road,Dallas,75217,Texas,TX,United States,"9733 Old Seagoville Road, Dallas TX 75217",North America
9924 Hillcrest Road,Dallas,75230,Texas,TX,United States,"9924 Hillcrest Road, Dallas TX 75230",North America
5611 Panther Drive,Danbury,77534,Texas,TX,United States,"5611 Panther Drive, Danbury TX 77534",North America
3131 Stone Valley Road,Danville,94526,California,CA,United States,"3131 Stone Valley Road, Danville CA 94526",North America
2013 West Third Street,Dayton,45417,Ohio,OH,United States,"2013 West Third Street, Dayton OH 45417",North America
1011 Prospect Drive,Decatur,35601,Alabama,AL,United States,"1011 Prospect Drive, Decatur AL 35601",North America
1625 Danville Rd.,Decatur,35603,Alabama,AL,United States,"1625 Danville Rd., Decatur AL 35603",North America
1900 S Sunnylane Road,Del City,73115,Oklahoma,OK,United States,"1900 S Sunnylane Road, Del City OK 73115",North America
4200 N Hwy 91,Denison,75020-6899,Texas,TX,United States,"4200 N Hwy 91, Denison TX 75020-6899",North America
1007 Fulton Street,Denton,76201,Texas,TX,United States,"1007 Fulton Street, Denton TX 76201",North America
5101 East McKinney Street,Denton,76208,Texas,TX,United States,"5101 East McKinney Street, Denton TX 76208",North America
624 Hwy 20 East,Denton,66017,Kansas,KS,United States,"624 Hwy 20 East, Denton KS 66017",North America
4762 State Highway 199,Dickson,73401,Oklahoma,OK,United States,"4762 State Highway 199, Dickson OK 73401",North America
1000 North 2nd Ave,Dodge City,67801,Kansas,KS,United States,"1000 North 2nd Ave, Dodge City KS 67801",North America
16500 Pierce Ferry Rd,Dolan Springs,86441,Arizona,AZ,United States,"16500 Pierce Ferry Rd, Dolan Springs AZ 86441",North America
8600 NW 107th Ave,Doral,33178,Florida,FL,United States,"8600 NW 107th Ave, Doral FL 33178",North America
20 Seaborne Drive,Dover,03820,New Hampshire,NH,United States,"20 Seaborne Drive, Dover NH 03820",North America
6301 Springside Avenue,Downers Grove,60516,Illinois,IL,United States,"6301 Springside Avenue, Downers Grove IL 60516",North America
300 N.W. 2nd Avenue,Downtown Miami,33128,Florida,FL,United States,"300 N.W. 2nd Avenue, Downtown Miami FL 33128",North America
175 West Main Street,Duchesne,84021,Utah,UT,United States,"175 West Main Street, Duchesne UT 84021",North America
108 Stadium Blvd.,Duncan,85534,Arizona,AZ,United States,"108 Stadium Blvd., Duncan AZ 85534",North America
900 West Camp Wisdom Road,Duncanville,75116,Texas,TX,United States,"900 West Camp Wisdom Road, Duncanville TX 75116",North America
950 Gerlach Drive,Durant,74701,Oklahoma,OK,United States,"950 Gerlach Drive, Durant OK 74701",North America
3218 Rose of Sharon Road,Durham,27712,North Carolina,NC,United States,"3218 Rose of Sharon Road, Durham NC 27712",North America
270 Industrial Way West,Eatontown,07724,New Jersey,NJ,United States,"270 Industrial Way West, Eatontown NJ 07724",North America
1414 N. Alamo Road,Edinburg,78541,Texas,TX,United States,"1414 N. Alamo Road, Edinburg TX 78541",North America
2600 E. Wisconsin Road,Edinburg,78542,Texas,TX,United States,"2600 E. Wisconsin Road, Edinburg TX 78542",North America
3101 N. Closner Blvd,Edinburg,78541,Texas,TX,United States,"3101 N. Closner Blvd, Edinburg TX 78541",North America
724 Sugar Road,Edingburg,78539,Texas,TX,United States,"724 Sugar Road, Edingburg TX 78539",North America
124 West Central Ave,El Dorado,67042,Kansas,KS,United States,"124 West Central Ave, El Dorado KS 67042",North America
11425 North Dysart Road,El Mirage,85335,Arizona,AZ,United States,"11425 North Dysart Road, El Mirage AZ 85335",North America
4088 E. Jefferson Rd.,Elfrida,85610,Arizona,AZ,United States,"4088 E. Jefferson Rd., Elfrida AZ 85610",North America
Highway 17 & Mighty Owl Avenue,Elgin,73538,Oklahoma,OK,United States,"Highway 17 & Mighty Owl Avenue, Elgin OK 73538",North America
145 W. 15th Street,Ellsworth,67439,Kansas,KS,United States,"145 W. 15th Street, Ellsworth KS 67439",North America
900 N. Main Street,Eloy,85131,Arizona,AZ,United States,"900 N. Main Street, Eloy AZ 85131",North America
1100 E. Main Street,Endicott,13760,New York,NY,United States,"1100 E. Main Street, Endicott NY 13760",North America
124 North Maple Street,Enfield,06082,Connecticut,CT,United States,"124 North Maple Street, Enfield CT 06082",North America
2700 S. Zuni St.,Englewood,80110,Colorado,CO,United States,"2700 S. Zuni St., Englewood CO 80110",North America
4018 W. Carrier Rd.,Enid,73703,Oklahoma,OK,United States,"4018 W. Carrier Rd., Enid OK 73703",North America
600 W. Wabash,Enid,73701,Oklahoma,OK,United States,"600 W. Wabash, Enid OK 73701",North America
1801 E. Paper Mill Road,Erdenheim,19038,Pennsylvania,PA,United States,"1801 E. Paper Mill Road, Erdenheim PA 19038",North America
35 Hillcrest Avenue,Erdenheim,19038,Pennsylvania,PA,United States,"35 Hillcrest Avenue, Erdenheim PA 19038",North America
500 North Industrial Boulevard,Euless,76039,Texas,TX,United States,"500 North Industrial Boulevard, Euless TX 76039",North America
15331 Hwy 41 North,Evansville,47725,Indiana,IN,United States,"15331 Hwy 41 North, Evansville IN 47725",North America
211 Fielding Road,Evansville,47715,Indiana,IN,United States,"211 Fielding Road, Evansville IN 47715",North America
1000 Race Street Drive,Everman,76140,Texas,TX,United States,"1000 Race Street Drive, Everman TX 76140",North America
91-980 North Road,Ewa Beach,96706,Hawaii,HI,United States,"91-980 North Road, Ewa Beach HI 96706",North America
1001 Fairdale Road,Fairdale,40118,Kentucky,KY,United States,"1001 Fairdale Road, Fairdale KY 40118",North America
7460 McCray Road,Fairview,16415,Pennsylvania,PA,United States,"7460 McCray Road, Fairview PA 16415",North America
2700 Christian Parkway,Farmers Branch,75234,Texas,TX,United States,"2700 Christian Parkway, Farmers Branch TX 75234",North America
499 State Highway 78,Farmersville,75442-0472,Texas,TX,United States,"499 State Highway 78, Farmersville TX 75442-0472",North America
1 Black Knight Drive,Farmington,63640,Missouri,MO,United States,"1 Black Knight Drive, Farmington MO 63640",North America
1062 Southern Avenue,Fayetteville,28306,North Carolina,NC,United States,"1062 Southern Avenue, Fayetteville NC 28306",North America
3300 E. Sparrow Ave.,Flagstaff,86004,Arizona,AZ,United States,"3300 E. Sparrow Ave., Flagstaff AZ 86004",North America
400 West Elm,Flagstaff,86001,Arizona,AZ,United States,"400 West Elm, Flagstaff AZ 86001",North America
6575 Old Vincennes Rd.,Floyds Knobs,47119,Indiana,IN,United States,"6575 Old Vincennes Rd., Floyds Knobs IN 47119",North America
149-11 Melbourne Ave.,Flushing,11367,New York,NY,United States,"149-11 Melbourne Ave., Flushing NY 11367",North America
1 Pride Place,Foley,36535,Alabama,AL,United States,"1 Pride Place, Foley AL 36535",North America
67-01 110th St.,Forest Hills,11375,New York,NY,United States,"67-01 110th St., Forest Hills NY 11375",North America
2407 LaPorte Avenue,Fort Collins,80521,Colorado,CO,United States,"2407 LaPorte Avenue, Fort Collins CO 80521",North America
2501 NW 11th St,Fort Lauderdale,33311-5796,Florida,FL,United States,"2501 NW 11th St, Fort Lauderdale FL 33311-5796",North America
2301 N B Street,Fort Smith,72901,Arkansas,AR,United States,"2301 N B Street, Fort Smith AR 72901",North America
15502 W. Hwy 70,Fort Thomas,85536,Arizona,AZ,United States,"15502 W. Hwy 70, Fort Thomas AZ 85536",North America
4501 West Freeway,Fort Worth,76107,Texas,TX,United States,"4501 West Freeway, Fort Worth TX 76107",North America
16100 E. Palisades Blvd.,Fountain Hills,85268,Arizona,AZ,United States,"16100 E. Palisades Blvd., Fountain Hills AZ 85268",North America
10700 Legacy Road,Frisco,75033,Texas,TX,United States,"10700 Legacy Road, Frisco TX 75033",North America
2606 Panther Creek Parkway,Frisco,75034,Texas,TX,United States,"2606 Panther Creek Parkway, Frisco TX 75034",North America
3003 Stonebrook Parkway,Frisco,75034,Texas,TX,United States,"3003 Stonebrook Parkway, Frisco TX 75034",North America
5151 Ohio Drive,Frisco,75035,Texas,TX,United States,"5151 Ohio Drive, Frisco TX 75035",North America
6901 Coit Road,Frisco,75035,Texas,TX,United States,"6901 Coit Road, Frisco TX 75035",North America
1917 Black Creek Parkway,Gadsden,35904,Alabama,AL,United States,"1917 Black Creek Parkway, Gadsden AL 35904",North America
1900 NW 13th Street,Gainesville,32609,Florida,FL,United States,"1900 NW 13th Street, Gainesville FL 32609",North America
3505 Hayman Drive,Garland,75043-1920,Texas,TX,United States,"3505 Hayman Drive, Garland TX 75043-1920",North America
308 N. Martin Avenue,Gila Bend,85337,Arizona,AZ,United States,"308 N. Martin Avenue, Gila Bend AZ 85337",North America
1515 S. Val Vista Drive,Gilbert,85296,Arizona,AZ,United States,"1515 S. Val Vista Drive, Gilbert AZ 85296",North America
3632 E. Jasper Drive,Gilbert,85296,Arizona,AZ,United States,"3632 E. Jasper Drive, Gilbert AZ 85296",North America
4068 East Pecos Road,Gilbert,85295,Arizona,AZ,United States,"4068 East Pecos Road, Gilbert AZ 85295",North America
803 Lonesome Bend Road,Glencoe,35905,Alabama,AL,United States,"803 Lonesome Bend Road, Glencoe AL 35905",North America
21000 N. 75th Avenue,Glendale,85308,Arizona,AZ,United States,"21000 N. 75th Avenue, Glendale AZ 85308",North America
1300 E. Cedar Street,Globe,85501,Arizona,AZ,United States,"1300 E. Cedar Street, Globe AZ 85501",North America
501 S. High Street,Globe,85501,Arizona,AZ,United States,"501 S. High Street, Globe AZ 85501",North America
500 East Main Street,Goessel,67053,Kansas,KS,United States,"500 East Main Street, Goessel KS 67053",North America
612 E Worthy Street,Gonzales,70737,Louisiana,LA,United States,"612 E Worthy Street, Gonzales LA 70737",North America
15778 W. Yuma Road,Goodyear,85338,Arizona,AZ,United States,"15778 W. Yuma Road, Goodyear AZ 85338",North America
1548 School Rd.,Grafton,58237,North Dakota,ND,United States,"1548 School Rd., Grafton ND 58237",North America
1 Boulder Street,Grand Canyon,86023,Arizona,AZ,United States,"1 Boulder Street, Grand Canyon AZ 86023",North America
101 Gopher Blvd,Grand Prairie,75050,Texas,TX,United States,"101 Gopher Blvd, Grand Prairie TX 75050",North America
301 West Warrior Trail,Grand Prairie,75052,Texas,TX,United States,"301 West Warrior Trail, Grand Prairie TX 75052",North America
6077 Main Street,Grant,35747,Alabama,AL,United States,"6077 Main Street, Grant AL 35747",North America
58 Quaker Street,Granville,12832,New York,NY,United States,"58 Quaker Street, Granville NY 12832",North America
3223 Mustang Drive,Grapevine,76051,Texas,TX,United States,"3223 Mustang Drive, Grapevine TX 76051",North America
201 South Patton Road,Great Bend,67530,Kansas,KS,United States,"201 South Patton Road, Great Bend KS 67530",North America
614 Middle Neck Road,Great Neck,11023,New York,NY,United States,"614 Middle Neck Road, Great Neck NY 11023",North America
2900 Seminary Drive,Greensburg,15601,Pennsylvania,PA,United States,"2900 Seminary Drive, Greensburg PA 15601",North America
4800 West Stones Crossing Road,Greenwood,46143,Indiana,IN,United States,"4800 West Stones Crossing Road, Greenwood IN 46143",North America
2151 Fews Chapel Road,Greer,29651,South Carolina,SC,United States,"2151 Fews Chapel Road, Greer SC 29651",North America
600 North 6th Street,Greybull,82426,Wyoming,WY,United States,"600 North 6th Street, Greybull WY 82426",North America
26 Powderhouse Road,Groton,01450,Massachusetts,MA,United States,"26 Powderhouse Road, Groton MA 01450",North America
15600 Silver Eagle Road,Groveland,34736,Florida,FL,United States,"15600 Silver Eagle Road, Groveland FL 34736",North America
5056 East K-4 Highway,Gypsum,67448,Kansas,KS,United States,"5056 East K-4 Highway, Gypsum KS 67448",North America
16455 Wedgeworth Drive,Hacienda Heights,91745,California,CA,United States,"16455 Wedgeworth Drive, Hacienda Heights CA 91745",North America
521 West 6th Street,Halstead,67056,Kansas,KS,United States,"521 West 6th Street, Halstead KS 67056",North America
5501 Haltom Road,Haltom City,76137,Texas,TX,United States,"5501 Haltom Road, Haltom City TX 76137",North America
211 Aggie Avenue,Hamilton,35570,Alabama,AL,United States,"211 Aggie Avenue, Hamilton AL 35570",North America
89 Western Avenue,Hampden,04444,Maine,ME,United States,"89 Western Avenue, Hampden ME 04444",North America
1701 Dixieland Road,Harlingen,78550,Texas,TX,United States,"1701 Dixieland Road, Harlingen TX 78550",North America
520 W South Street,Hastings,49058,Michigan,MI,United States,"520 W South Street, Hastings MI 49058",North America
935 Echo Lane,Hedwig Village,77024,Texas,TX,United States,"935 Echo Lane, Hedwig Village TX 77024",North America
4200 E. Ramsey Road,Hereford,85615,Arizona,AZ,United States,"4200 E. Ramsey Road, Hereford AZ 85615",North America
19 North Broadway Street,Herington,67449,Kansas,KS,United States,"19 North Broadway Street, Herington KS 67449",North America
305 Edenton Road Street,Hertford,27944,North Carolina,NC,United States,"305 Edenton Road Street, Hertford NC 27944",North America
150 North Ridge Road,Hesston,67062,Kansas,KS,United States,"150 North Ridge Road, Hesston KS 67062",North America
4000 W 18th Ave,Hialeah,33012,Florida,FL,United States,"4000 W 18th Ave, Hialeah FL 33012",North America
5701 W. 24 Ave,Hialeah,33016,Florida,FL,United States,"5701 W. 24 Ave, Hialeah FL 33016",North America
11700 Hialeah Gardens Blvd.,Hialeah Gardens,33018,Florida,FL,United States,"11700 Hialeah Gardens Blvd., Hialeah Gardens FL 33018",North America
180 Division Avenue,Hicksville,11801,New York,NY,United States,"180 Division Avenue, Hicksville NY 11801",North America
9145 Kennedy Avenue,Highland,46322-2747,Indiana,IN,United States,"9145 Kennedy Avenue, Highland IN 46322-2747",North America
1991 West Wildcat Reserve Parkway,Highlands Ranch,80129,Colorado,CO,United States,"1991 West Wildcat Reserve Parkway, Highlands Ranch CO 80129",North America
416 South Date Street,Hillsboro,67063,Kansas,KS,United States,"416 South Date Street, Hillsboro KS 67063",North America
556 Waianuenue Avenue,Hilo,96720,Hawaii,HI,United States,"556 Waianuenue Avenue, Hilo HI 96720",North America
400 East Avenue,Hilton,14468,New York,NY,United States,"400 East Avenue, Hilton NY 14468",North America
165 West 3rd Street,Hoisington,67544,Kansas,KS,United States,"165 West 3rd Street, Hoisington KS 67544",North America
455 N. 8th Avenue,Holbrook,86025,Arizona,AZ,United States,"455 N. 8th Avenue, Holbrook AZ 86025",North America
3303 Gulf Trace Blvd.,Holiday,34691,Florida,FL,United States,"3303 Gulf Trace Blvd., Holiday FL 34691",North America
4055 S. 2300 East,Holladay,84124,Utah,UT,United States,"4055 S. 2300 East, Holladay UT 84124",North America
6161 East Holly Road,Holly,48442,Michigan,MI,United States,"6161 East Holly Road, Holly MI 48442",North America
3260 Stirling Road,Hollywood,33021,Florida,FL,United States,"3260 Stirling Road, Hollywood FL 33021",North America
1564 North King Street,Honolulu,96817,Hawaii,HI,United States,"1564 North King Street, Honolulu HI 96817",North America
2705 Kaimuki Avenue,Honolulu,96816,Hawaii,HI,United States,"2705 Kaimuki Avenue, Honolulu HI 96816",North America
2825 Ala Ilima Street,Honolulu,96818,Hawaii,HI,United States,"2825 Ala Ilima Street, Honolulu HI 96818",North America
310 Halemaokinaumaokinau Street,Honolulu,96821-2099,Hawaii,HI,United States,"310 Halemaokinaumaokinau Street, Honolulu HI 96821-2099",North America
4361 Salt Lake Boulevard,Honolulu,96818,Hawaii,HI,United States,"4361 Salt Lake Boulevard, Honolulu HI 96818",North America
4680 Kalaniana'ole Highway,Honolulu,96821,Hawaii,HI,United States,"4680 Kalaniana'ole Highway, Honolulu HI 96821",North America
511 Lunalilo Home Road,Honolulu,96725,Hawaii,HI,United States,"511 Lunalilo Home Road, Honolulu HI 96725",North America
2276 S. Dixie Highway,Horse Cave,42749,Kentucky,KY,United States,"2276 S. Dixie Highway, Horse Cave KY 42749",North America
4207 Park Avenue,Hot Springs,71901,Arkansas,AR,United States,"4207 Park Avenue, Hot Springs AR 71901",North America
2008 Kirby Drive,Houston,77019,Texas,TX,United States,"2008 Kirby Drive, Houston TX 77019",North America
3325 Westheimer Road,Houston,77098,Texas,TX,United States,"3325 Westheimer Road, Houston TX 77098",North America
8540 C.E. King Parkway,Houston,77044,Texas,TX,United States,"8540 C.E. King Parkway, Houston TX 77044",North America
1800 Sull Ross Street,Houston,77098,Texas,TX,United States,"1800 Sull Ross Street, Houston TX 77098",North America
925 5th Street,Hull,51239,Iowa,IA,United States,"925 5th Street, Hull IA 51239",North America
1601 Brown Trail,Hurst,76054,Texas,TX,United States,"1601 Brown Trail, Hurst TX 76054",North America
100 Bruno Lane,Imperial,15126,Pennsylvania,PA,United States,"100 Bruno Lane, Imperial PA 15126",North America
1200 East 42nd Street,Indianapolis,95608,Indiana,IN,United States,"1200 East 42nd Street, Indianapolis IN 95608",North America
2925 East 96th Street,Indianapolis,46240,Indiana,IN,United States,"2925 East 96th Street, Indianapolis IN 46240",North America
16303 E Temple Ave,Industry,91744,California,CA,United States,"16303 E Temple Ave, Industry CA 91744",North America
510 College St,Ingram,78025,Texas,TX,United States,"510 College St, Ingram TX 78025",North America
1 Bob Dawson Drive,Iowa Park,76367-1199,Texas,TX,United States,"1 Bob Dawson Drive, Iowa Park TX 76367-1199",North America
100 West Oakdale Road,Irving,75060,Texas,TX,United States,"100 West Oakdale Road, Irving TX 75060",North America
3700 MacArthur Boulevard,Irving,75062,Texas,TX,United States,"3700 MacArthur Boulevard, Irving TX 75062",North America
4601 North MacArthur Boulevard,Irving,75038,Texas,TX,United States,"4601 North MacArthur Boulevard, Irving TX 75038",North America
1400 North Main Street,Jacksboro,76458-2214,Texas,TX,United States,"1400 North Main Street, Jacksboro TX 76458-2214",North America
3663 Raines Avenue,Jacksonville,32209,Florida,FL,United States,"3663 Raines Avenue, Jacksonville FL 32209",North America
910 Church Street,Jefferson City,37760,Tennessee,TN,United States,"910 Church Street, Jefferson City TN 37760",North America
205 East B Street,Jenks,74037,Oklahoma,OK,United States,"205 East B Street, Jenks OK 74037",North America
4629 East 2nd North,Joseph City,86032,Arizona,AZ,United States,"4629 East 2nd North, Joseph City AZ 86032",North America
56-490 Kamehameha Highway,Kahuku,96731,Hawaii,HI,United States,"56-490 Kamehameha Highway, Kahuku HI 96731",North America
660 South Lono Avenue,Kahului,96732,Hawaii,HI,United States,"660 South Lono Avenue, Kahului HI 96732",North America
451 Ulumanu Drive,Kailua,96734,Hawaii,HI,United States,"451 Ulumanu Drive, Kailua HI 96734",North America
730 Iliaina Street,Kailua,96734,Hawaii,HI,United States,"730 Iliaina Street, Kailua HI 96734",North America
45-386 Kaneohe Bay Drive,Kaneohe,96744,Hawaii,HI,United States,"45-386 Kaneohe Bay Drive, Kaneohe HI 96744",North America
91-5007 Kapolei Parkway,Kapolei,96707,Hawaii,HI,United States,"91-5007 Kapolei Parkway, Kapolei HI 96707",North America
21000 Franz Road,Katy,77449,Texas,TX,United States,"21000 Franz Road, Katy TX 77449",North America
4400 Falcon Landing Boulevard,Katy,77494,Texas,TX,United States,"4400 Falcon Landing Boulevard, Katy TX 77494",North America
6331 Highway Boulevard,Katy,77494,Texas,TX,United States,"6331 Highway Boulevard, Katy TX 77494",North America
"AZ Hwy. 77, MP 31",Keams Canyon,86034,Arizona,AZ,United States,"AZ Hwy. 77, MP 31, Keams Canyon AZ 86034",North America
701 N. Hwy 177,Kearny,85137,Arizona,AZ,United States,"701 N. Hwy 177, Kearny AZ 85137",North America
401 South Old Betsy Road,Keene,76059,Texas,TX,United States,"401 South Old Betsy Road, Keene TX 76059",North America
11005 S.W. 84th Street,Kendall,33173,Florida,FL,United States,"11005 S.W. 84th Street, Kendall FL 33173",North America
321 North DePeyster Street,Kent,44240,Ohio,OH,United States,"321 North DePeyster Street, Kent OH 44240",North America
241 Trumbo Road,Key West,33040,Florida,FL,United States,"241 Trumbo Road, Key West FL 33040",North America
400 Grandview Avenue,Kingman,86401,Arizona,AZ,United States,"400 Grandview Avenue, Kingman AZ 86401",North America
4182 Bank Street,Kingman,86409,Arizona,AZ,United States,"4182 Bank Street, Kingman AZ 86409",North America
1010 West Avenue B,Kingsville,78363,Texas,TX,United States,"1010 West Avenue B, Kingsville TX 78363",North America
806 Russell Palmer Rd.,Kingwood,77339,Texas,TX,United States,"806 Russell Palmer Rd., Kingwood TX 77339",North America
16715 Stuebner Airline,Klein,77379,Texas,TX,United States,"16715 Stuebner Airline, Klein TX 77379",North America
22603 Northcrest Dr.,Klein,77389,Texas,TX,United States,"22603 Northcrest Dr., Klein TX 77389",North America
13799 KS Hwy 152,La Cygne,66040,Kansas,KS,United States,"13799 KS Hwy 152, La Cygne KS 66040",North America
301 East Fairmont Parkway,La Porte,77571,Texas,TX,United States,"301 East Fairmont Parkway, La Porte TX 77571",North America
401 Nogales St.,La Puente,91744,California,CA,United States,"401 Nogales St., La Puente CA 91744",North America
1801 South 18th Street,Lafayette,47905,Indiana,IN,United States,"1801 South 18th Street, Lafayette IN 47905",North America
301 Dunand Street,Lafayette,70501,Louisiana,LA,United States,"301 Dunand Street, Lafayette LA 70501",North America
980 Lahainaluna Road,Lahaina,96761,Hawaii,HI,United States,"980 Lahainaluna Road, Lahaina HI 96761",North America
2675 Palo Verde Boulevard South,Lake Havasu City,86403,Arizona,AZ,United States,"2675 Palo Verde Boulevard South, Lake Havasu City AZ 86403",North America
7900 Jog Road,Lake Worth,33467,Florida,FL,United States,"7900 Jog Road, Lake Worth FL 33467",North America
7007 N. Socrum Loop Road,Lakeland,33809,Florida,FL,United States,"7007 N. Socrum Loop Road, Lakeland FL 33809",North America
200 East Wintergreen Road,Lancaster,75134,Texas,TX,United States,"200 East Wintergreen Road, Lancaster TX 75134",North America
2261 Indiana Avenue,Lansing,60438,Illinois,IL,United States,"2261 Indiana Avenue, Lansing IL 60438",North America
1600 Espejo Molina Road,Laredo,78046,Texas,TX,United States,"1600 Espejo Molina Road, Laredo TX 78046",North America
2002 San Bernardo Avenue,Laredo,78040,Texas,TX,United States,"2002 San Bernardo Avenue, Laredo TX 78040",North America
2901 East Travis Street,Laredo,78043,Texas,TX,United States,"2901 East Travis Street, Laredo TX 78043",North America
3600 E. Del Mar Blvd,Laredo,78041,Texas,TX,United States,"3600 E. Del Mar Blvd, Laredo TX 78041",North America
2400 Angel Peak Place,Las Vegas,89124,Nevada,NV,United States,"2400 Angel Peak Place, Las Vegas NV 89124",North America
3050 NW 41st Street,Lauderdale Lakes,33309,Florida,FL,United States,"3050 NW 41st Street, Lauderdale Lakes FL 33309",North America
"35-2065 Old Mamalahoa Hwy, , HI",Laupahoehoe,96764,Hawaii,HI,United States,"35-2065 Old Mamalahoa Hwy, , HI, Laupahoehoe HI 96764",North America
4400 East Gore Boulevard,Lawton,73501,Oklahoma,OK,United States,"4400 East Gore Boulevard, Lawton OK 73501",North America
5202 West Gore Boulevard,Lawton,73505,Oklahoma,OK,United States,"5202 West Gore Boulevard, Lawton OK 73505",North America
200 West Schuetz Street,Lebanon,62254,Illinois,IL,United States,"200 West Schuetz Street, Lebanon IL 62254",North America
502 Berry Drive,Leesville,71446,Louisiana,LA,United States,"502 Berry Drive, Leesville LA 71446",North America
2 Manor Drive,Lewistown,17044,Pennsylvania,PA,United States,"2 Manor Drive, Lewistown PA 17044",North America
5643 Platt Springs Road,Lexington,29073,South Carolina,SC,United States,"5643 Platt Springs Road, Lexington SC 29073",North America
401 North Kansas Ave,Liberal,67901,Kansas,KS,United States,"401 North Kansas Ave, Liberal KS 67901",North America
126 South Main Street,Lindsborg,67456,Kansas,KS,United States,"126 South Main Street, Lindsborg KS 67456",North America
6161 NW 5th CT.,Little Haiti,33127,Florida,FL,United States,"6161 NW 5th CT., Little Haiti FL 33127",North America
1205 E. Dixon Road,Little Rock,72206,Arkansas,AR,United States,"1205 E. Dixon Road, Little Rock AR 72206",North America
19010 Cantrell Road,Little Rock,72223,Arkansas,AR,United States,"19010 Cantrell Road, Little Rock AR 72223",North America
101 West Center Street98,Logan,84341,Utah,UT,United States,"101 West Center Street98, Logan UT 84341",North America
One Wildcat Way,Logan,25601,West Virginia,WV,United States,"One Wildcat Way, Logan WV 25601",North America
201 Almond Avenue,Los Altos,94022,California,CA,United States,"201 Almond Avenue, Los Altos CA 94022",North America
"250 South Rossmore Avenue, Hancock Park",Los Angeles,90004,California,CA,United States,"250 South Rossmore Avenue, Hancock Park, Los Angeles CA 90004",North America
4211 Dozier St.,Los Angeles,90063,California,CA,United States,"4211 Dozier St., Los Angeles CA 90063",North America
2382 310th Street,Lost Springs,66859,Kansas,KS,United States,"2382 310th Street, Lost Springs KS 66859",North America
120 West Lee St,Louisville,40208,Kentucky,KY,United States,"120 West Lee St, Louisville KY 40208",North America
6010 Preston Highway,Louisville,40219,Kentucky,KY,United States,"6010 Preston Highway, Louisville KY 40219",North America
152 NBC Drive,Loysburg,16659,Pennsylvania,PA,United States,"152 NBC Drive, Loysburg PA 16659",North America
2350 Estates Parkway,Lucas,75002,Texas,TX,United States,"2350 Estates Parkway, Lucas TX 75002",North America
905 West Academy Ave,Maize,67101,Kansas,KS,United States,"905 West Academy Ave, Maize KS 67101",North America
300 High Street,Manchester,17345,Pennsylvania,PA,United States,"300 High Street, Manchester PA 17345",North America
801 Hanna Road,Manchester,63021,Missouri,MO,United States,"801 Hanna Road, Manchester MO 63021",North America
"Loop Drive, Lakeview Road, Hwy. 191",Many Farms,86538,Arizona,AZ,United States,"Loop Drive, Lakeview Road, Hwy. 191, Many Farms AZ 86538",North America
816 East Grant Highway,Marengo,60152,Illinois,IL,United States,"816 East Grant Highway, Marengo IL 60152",North America
45012 W. Honeycutt Avenue,Maricopa,85138,Arizona,AZ,United States,"45012 W. Honeycutt Avenue, Maricopa AZ 85138",North America
101 North Thorp Street,Marion,66861,Kansas,KS,United States,"101 North Thorp Street, Marion KS 66861",North America
4925 Merrick Road,Massapequa,11758,New York,NY,United States,"4925 Merrick Road, Massapequa NY 11758",North America
17300 E. Mule Deer Drive,Mayer,86333,Arizona,AZ,United States,"17300 E. Mule Deer Drive, Mayer AZ 86333",North America
5100 Dove Avenue,McAllen,78504,Texas,TX,United States,"5100 Dove Avenue, McAllen TX 78504",North America
2100 White Avenue,McKinney,75069,Texas,TX,United States,"2100 White Avenue, McKinney TX 75069",North America
514 North Main Street,McPherson,67460,Kansas,KS,United States,"514 North Main Street, McPherson KS 67460",North America
31375 Bradley Road,Menifee,92584,California,CA,United States,"31375 Bradley Road, Menifee CA 92584",North America
1200 South Florida Street,Mercedes,78570,Texas,TX,United States,"1200 South Florida Street, Mercedes TX 78570",North America
223 North Highland Avenue,Merion Station,19066,Pennsylvania,PA,United States,"223 North Highland Avenue, Merion Station PA 19066",North America
10222 E. Southern Av.,Mesa,85208,Arizona,AZ,United States,"10222 E. Southern Av., Mesa AZ 85208",North America
1143 S. Lindsay Rd.,Mesa,85204,Arizona,AZ,United States,"1143 S. Lindsay Rd., Mesa AZ 85204",North America
1460 S. Horne Street,Mesa,85204,Arizona,AZ,United States,"1460 S. Horne Street, Mesa AZ 85204",North America
1630 East Southern Avenue,Mesa,85204-5220,Arizona,AZ,United States,"1630 East Southern Avenue, Mesa AZ 85204-5220",North America
1731 N. Country Club Dr.,Mesa,85201,Arizona,AZ,United States,"1731 N. Country Club Dr., Mesa AZ 85201",North America
32 S. Center St.,Mesa,85210,Arizona,AZ,United States,"32 S. Center St., Mesa AZ 85210",North America
845 S. Crismon Rd.,Mesa,85208,Arizona,AZ,United States,"845 S. Crismon Rd., Mesa AZ 85208",North America
945 West Rio Salado Parkway,Mesa,85201,Arizona,AZ,United States,"945 West Rio Salado Parkway, Mesa AZ 85201",North America
1515 Republic Parkway,Mesquite,75150,Texas,TX,United States,"1515 Republic Parkway, Mesquite TX 75150",North America
820 Valley View Drive,Mesquite,89027,Nevada,NV,United States,"820 Valley View Drive, Mesquite NV 89027",North America
204 North Grand Street,Mexico,65265-3020,Missouri,MO,United States,"204 North Grand Street, Mexico MO 65265-3020",North America
1100 Northwest 71st Street,Miami,33150,Florida,FL,United States,"1100 Northwest 71st Street, Miami FL 33150",North America
2450 SW 1st Street,Miami,33135,Florida,FL,United States,"2450 SW 1st Street, Miami FL 33135",North America
"3000 NE 151st street, AC-1, Room 395",Miami,33181,Florida,FL,United States,"3000 NE 151st street, AC-1, Room 395, Miami FL 33181",North America
4739 E. Ragus Road,Miami,85539,Arizona,AZ,United States,"4739 E. Ragus Road, Miami AZ 85539",North America
2231 Prairie Avenue,Miami Beach,33139,Florida,FL,United States,"2231 Prairie Avenue, Miami Beach FL 33139",North America
5780 NW 158th Street,Miami Lakes,33014,Florida,FL,United States,"5780 NW 158th Street, Miami Lakes FL 33014",North America
11301 NW 5 Avenue,Miami Shores,33168,Florida,FL,United States,"11301 NW 5 Avenue, Miami Shores FL 33168",North America
150 S. Royal Poinciana Boulevard,Miami Springs,33166,Florida,FL,United States,"150 S. Royal Poinciana Boulevard, Miami Springs FL 33166",North America
751 Dove Ave,Miami Springs,33166,Florida,FL,United States,"751 Dove Ave, Miami Springs FL 33166",North America
22407 Foxhound Lane,Middleburg,20117,Virginia,VA,United States,"22407 Foxhound Lane, Middleburg VA 20117",North America
95-1200 Meheula Parkway,Mililani,96789,Hawaii,HI,United States,"95-1200 Meheula Parkway, Mililani HI 96789",North America
4300 Main Street,Millbrook,36054,Alabama,AL,United States,"4300 Main Street, Millbrook AL 36054",North America
199 State Street,Millinocket,04462,Maine,ME,United States,"199 State Street, Millinocket ME 04462",North America
6215 West Warnimont Avenue,Milwaukee,53220,Wisconsin,WI,United States,"6215 West Warnimont Avenue, Milwaukee WI 53220",North America
201 West 49th Street,Minneapolis,55419,Minnesota,MN,United States,"201 West 49th Street, Minneapolis MN 55419",North America
3414 West 47th Street,Minneapolis,55410,Minnesota,MN,United States,"3414 West 47th Street, Minneapolis MN 55410",North America
700 22nd Avenue Northeast,Minneapolis,55418,Minnesota,MN,United States,"700 22nd Avenue Northeast, Minneapolis MN 55418",North America
7007 Knights Court,Missouri City,77459,Texas,TX,United States,"7007 Knights Court, Missouri City TX 77459",North America
2250 E. Laguna Road,Mohave Valley,86440,Arizona,AZ,United States,"2250 E. Laguna Road, Mohave Valley AZ 86440",North America
3500 Douglas Avenue,Mojave,93501,California,CA,United States,"3500 Douglas Avenue, Mojave CA 93501",North America
1245 State Road,Monessen,15062,Pennsylvania,PA,United States,"1245 State Road, Monessen PA 15062",North America
1756 S. Court Street,Montgomery,36104,Alabama,AL,United States,"1756 S. Court Street, Montgomery AL 36104",North America
8353 University Boulevard,Moon Township,15108,Pennsylvania,PA,United States,"8353 University Boulevard, Moon Township PA 15108",North America
473 Stadium Drive,Morenci,85540,Arizona,AZ,United States,"473 Stadium Drive, Morenci AZ 85540",North America
17750 Lasselle Street,Moreno Valley,92551,California,CA,United States,"17750 Lasselle Street, Moreno Valley CA 92551",North America
526 East Cole Street,Moundridge,67107,Kansas,KS,United States,"526 East Cole Street, Moundridge KS 67107",North America
720 North Kinney,Mount Pleasant,48858,Michigan,MI,United States,"720 North Kinney, Mount Pleasant MI 48858",North America
8050 NC 801 Highway,Mount Ulla,28125,North Carolina,NC,United States,"8050 NC 801 Highway, Mount Ulla NC 28125",North America
501 Highway 37 South,Mount Vernon,75457,Texas,TX,United States,"501 Highway 37 South, Mount Vernon TX 75457",North America
2635 Oak Hill Road,Mouth of Wilson,24363,Virginia,VA,United States,"2635 Oak Hill Road, Mouth of Wilson VA 24363",North America
6015 South 1300 East Street,Murray,84121,Utah,UT,United States,"6015 South 1300 East Street, Murray UT 84121",North America
35 South Sheridan,Muskegon,49442,Michigan,MI,United States,"35 South Sheridan, Muskegon MI 49442",North America
455 E. Ellis Road,Muskegon,49441,Michigan,MI,United States,"455 E. Ellis Road, Muskegon MI 49441",North America
80 West Southern Avenue,Muskegon,49441,Michigan,MI,United States,"80 West Southern Avenue, Muskegon MI 49441",North America
2441 Sanford Street,Muskegon Heights,49444,Michigan,MI,United States,"2441 Sanford Street, Muskegon Heights MI 49444",North America
2629 S. Horseshoe Drive,Naples,34104,Florida,FL,United States,"2629 S. Horseshoe Drive, Naples FL 34104",North America
110 - 112 Gallatin Rd.,Nashville,37216,Tennessee,TN,United States,"110 - 112 Gallatin Rd., Nashville TN 37216",North America
1150 Hunters Lane,Nashville,37207,Tennessee,TN,United States,"1150 Hunters Lane, Nashville TN 37207",North America
1250 Foster Ave.,Nashville,37210,Tennessee,TN,United States,"1250 Foster Ave., Nashville TN 37210",North America
275 McGavock Pike,Nashville,37214,Tennessee,TN,United States,"275 McGavock Pike, Nashville TN 37214",North America
3150 McGavock Pike,Nashville,37214,Tennessee,TN,United States,"3150 McGavock Pike, Nashville TN 37214",North America
3500 Hobbs Road,Nashville,37215,Tennessee,TN,United States,"3500 Hobbs Road, Nashville TN 37215",North America
401 Walton Lane,Nashville,37216,Tennessee,TN,United States,"401 Walton Lane, Nashville TN 37216",North America
4820 Franklin Road,Nashville,37220,Tennessee,TN,United States,"4820 Franklin Road, Nashville TN 37220",North America
713 Ramsey St.,Nashville,37206,Tennessee,TN,United States,"713 Ramsey St., Nashville TN 37206",North America
"904 26th Avenue, North",Nashville,37208,Tennessee,TN,United States,"904 26th Avenue, North, Nashville TN 37208",North America
6513 Highway 1 South Bypass,Natchitoches,71457,Louisiana,LA,United States,"6513 Highway 1 South Bypass, Natchitoches LA 71457",North America
346 East 600 North96,Nephi,84648,Utah,UT,United States,"346 East 600 North96, Nephi UT 84648",North America
54 Meadow Street,New Haven,06519,Connecticut,CT,United States,"54 Meadow Street, New Haven CT 06519",North America
490 Jefferson Avenue,New London,06320,Connecticut,CT,United States,"490 Jefferson Avenue, New London CT 06320",North America
1458 York Avenue,New York City,10075,New York,NY,United States,"1458 York Avenue, New York City NY 10075",North America
30 W 16th St,New York City,10011,New York,NY,United States,"30 W 16th St, New York City NY 10011",North America
54-40 74th St,New York City,11373,New York,NY,United States,"54-40 74th St, New York City NY 11373",North America
308 East 1st Street,Newton,67114,Kansas,KS,United States,"308 East 1st Street, Newton KS 67114",North America
609 S. Lafayette St,Newton,62448,Illinois,IL,United States,"609 S. Lafayette St, Newton IL 62448",North America
1785 Bishop White Drive,Newtown Square,19073,Pennsylvania,PA,United States,"1785 Bishop White Drive, Newtown Square PA 19073",North America
4455 Porter Road,Niagara Falls,14301,New York,NY,United States,"4455 Porter Road, Niagara Falls NY 14301",North America
616 Dragon Drive,Niles,44446,Ohio,OH,United States,"616 Dragon Drive, Niles OH 44446",North America
451 N. Arroyo Blvd.,Nogales,85621,Arizona,AZ,United States,"451 N. Arroyo Blvd., Nogales AZ 85621",North America
1809 Stubbeman Avenue,Norman,73072,Oklahoma,OK,United States,"1809 Stubbeman Avenue, Norman OK 73072",North America
911 W. Main Street,Norman,73069,Oklahoma,OK,United States,"911 W. Main Street, Norman OK 73069",North America
525 7th Street NE,North Canton,44720,Ohio,OH,United States,"525 7th Street NE, North Canton OH 44720",North America
2063 North 1200 East North64,North Logan,84341,Utah,UT,United States,"2063 North 1200 East North64, North Logan UT 84341",North America
13110 NE 8th Avenue,North Miami,33161,Florida,FL,United States,"13110 NE 8th Avenue, North Miami FL 33161",North America
5201 Holiday Lane,North Richland Hills,76180,Texas,TX,United States,"5201 Holiday Lane, North Richland Hills TX 76180",North America
15711 Pioneer Blvd,Norwalk,90650,California,CA,United States,"15711 Pioneer Blvd, Norwalk CA 90650",North America
"245 Nichols St, Norwood",Norwood,02062,Massachusetts,MA,United States,"245 Nichols St, Norwood, Norwood MA 02062",North America
24062 Taft Road,Novi,48375,Michigan,MI,United States,"24062 Taft Road, Novi MI 48375",North America
8210 Lankford Highway,Oak Hall,23416,Virginia,VA,United States,"8210 Lankford Highway, Oak Hall VA 23416",North America
7 NW 28th Street,Ocala,34475,Florida,FL,United States,"7 NW 28th Street, Ocala FL 34475",North America
11800 North Rockwell Avenue,Oklahoma City,73162,Oklahoma,OK,United States,"11800 North Rockwell Avenue, Oklahoma City OK 73162",North America
1755 Craft Road,Olive Branch,38654,Mississippi,MS,United States,"1755 Craft Road, Olive Branch MS 38654",North America
20303 Blue Sage Parkway,Omaha,68130,Nebraska,NE,United States,"20303 Blue Sage Parkway, Omaha NE 68130",North America
26350 Lankford Highway,Onley,23418,Virginia,VA,United States,"26350 Lankford Highway, Onley VA 23418",North America
951 S 400 W,Orem,84058,Utah,UT,United States,"951 S 400 W, Orem UT 84058",North America
1000 E. Kaley,Orlando,32806,Florida,FL,United States,"1000 E. Kaley, Orlando FL 32806",North America
1001 Avalon Park Blvd. East,Orlando,32828,Florida,FL,United States,"1001 Avalon Park Blvd. East, Orlando FL 32828",North America
6100 Oleander Drive,Orlando,32807,Florida,FL,United States,"6100 Oleander Drive, Orlando FL 32807",North America
25 West Calle Concordia,Oro Valley,85704,Arizona,AZ,United States,"25 West Calle Concordia, Oro Valley AZ 85704",North America
1111 Oak Ridge Dr PO BOX 128,Osceola,54020,Wisconsin,WI,United States,"1111 Oak Ridge Dr PO BOX 128, Osceola WI 54020",North America
719 4th Street,Oswego,67356,Kansas,KS,United States,"719 4th Street, Oswego KS 67356",North America
111 W Oxford Street,Otterbein,47970,Indiana,IN,United States,"111 W Oxford Street, Otterbein IN 47970",North America
4241 East 300 South,Oxford,47971,Indiana,IN,United States,"4241 East 300 South, Oxford IN 47971",North America
434 Lake Powell Blvd.,Page,86040,Arizona,AZ,United States,"434 Lake Powell Blvd., Page AZ 86040",North America
1170 W. Arctic Ave.,Palmer,99654,Alaska,AK,United States,"1170 W. Arctic Ave., Palmer AK 99654",North America
9550 E. Colony Schools Drive,Palmer,99645,Alaska,AK,United States,"9550 E. Colony Schools Drive, Palmer AK 99645",North America
1918 Thomas Jefferson Parkway,Palmyra,22963,Virginia,VA,United States,"1918 Thomas Jefferson Parkway, Palmyra VA 22963",North America
351 South Hudson Avenue,Pasadena,91101-3507,California,CA,United States,"351 South Hudson Avenue, Pasadena CA 91101-3507",North America
2412 Kings River Road,Pawley's Island,29585,South Carolina,SC,United States,"2412 Kings River Road, Pawley's Island SC 29585",North America
301 S. McLane,Payson,85541,Arizona,AZ,United States,"301 S. McLane, Payson AZ 85541",North America
506 North Elm Street,Peabody,66866,Kansas,KS,United States,"506 North Elm Street, Peabody KS 66866",North America
2100 Hookiekie Street,Pearl City,96782,Hawaii,HI,United States,"2100 Hookiekie Street, Pearl City HI 96782",North America
2050 Cullen Blvd,Pearland,77584,Texas,TX,United States,"2050 Cullen Blvd, Pearland TX 77584",North America
1100 N Eastern School Rd,Pekin,47165,Indiana,IN,United States,"1100 N Eastern School Rd, Pekin IN 47165",North America
1310 N 65th Avenue,Pensacola,32506,Florida,FL,United States,"1310 N 65th Avenue, Pensacola FL 32506",North America
8885 W. Peoria Ave.,Peoria,85345,Arizona,AZ,United States,"8885 W. Peoria Ave., Peoria AZ 85345",North America
1696 Perryville Road,Perryville,21903,Maryland,MD,United States,"1696 Perryville Road, Perryville MD 21903",North America
1301 W. Pecan Street,Pflugerville,78660,Texas,TX,United States,"1301 W. Pecan Street, Pflugerville TX 78660",North America
10175 Bustleton Ave,Philadelphia,19116,Pennsylvania,PA,United States,"10175 Bustleton Ave, Philadelphia PA 19116",North America
151 W Luzerne St,Philadelphia,19140,Pennsylvania,PA,United States,"151 W Luzerne St, Philadelphia PA 19140",North America
1601 Cottman Ave,Philadelphia,19111,Pennsylvania,PA,United States,"1601 Cottman Ave, Philadelphia PA 19111",North America
18 S. 7th and Market Streets,Philadelphia,19106,Pennsylvania,PA,United States,"18 S. 7th and Market Streets, Philadelphia PA 19106",North America
201 Spring Lane,Philadelphia,19128,Pennsylvania,PA,United States,"201 Spring Lane, Philadelphia PA 19128",North America
2101 South Broad Street,Philadelphia,19146,Pennsylvania,PA,United States,"2101 South Broad Street, Philadelphia PA 19146",North America
2200 North 22nd Street,Philadelphia,19132,Pennsylvania,PA,United States,"2200 North 22nd Street, Philadelphia PA 19132",North America
3116 Frankford Ave.,Philadelphia,19134,Pennsylvania,PA,United States,"3116 Frankford Ave., Philadelphia PA 19134",North America
3133 Ridge Ave,Philadelphia,19132,Pennsylvania,PA,United States,"3133 Ridge Ave, Philadelphia PA 19132",North America
32nd and Morris Streets,Philadelphia,19145,Pennsylvania,PA,United States,"32nd and Morris Streets, Philadelphia PA 19145",North America
4021 Parkside Avenue,Philadelphia,19104,Pennsylvania,PA,United States,"4021 Parkside Avenue, Philadelphia PA 19104",North America
4125 Ludlow Street,Philadelphia,19104,Pennsylvania,PA,United States,"4125 Ludlow Street, Philadelphia PA 19104",North America
4901 Chestnut St,Philadelphia,19137,Pennsylvania,PA,United States,"4901 Chestnut St, Philadelphia PA 19137",North America
550 N Broad St,Philadelphia,19130,Pennsylvania,PA,United States,"550 N Broad St, Philadelphia PA 19130",North America
5500 Langdon Street,Philadelphia,19124,Pennsylvania,PA,United States,"5500 Langdon Street, Philadelphia PA 19124",North America
5800 Walnut Street,Philadelphia,19139,Pennsylvania,PA,United States,"5800 Walnut Street, Philadelphia PA 19139",North America
5900 Baltimore Pike,Philadelphia,19153,Pennsylvania,PA,United States,"5900 Baltimore Pike, Philadelphia PA 19153",North America
6100 Stenton Avenue,Philadelphia,19138,Pennsylvania,PA,United States,"6100 Stenton Avenue, Philadelphia PA 19138",North America
6498 Ridge Avenue,Philadelphia,19128,Pennsylvania,PA,United States,"6498 Ridge Avenue, Philadelphia PA 19128",North America
"Oxford Avenue and Wakeling Street,",Philadelphia,19124,Pennsylvania,PA,United States,"Oxford Avenue and Wakeling Street,, Philadelphia PA 19124",North America
1122 S. 67th Ave.,Phoenix,85043,Arizona,AZ,United States,"1122 S. 67th Ave., Phoenix AZ 85043",North America
1410 N 3rd St,Phoenix,85004,Arizona,AZ,United States,"1410 N 3rd St, Phoenix AZ 85004",North America
16233 South 48th Street,Phoenix,85048,Arizona,AZ,United States,"16233 South 48th Street, Phoenix AZ 85048",North America
16401 North 43rd Avenue,Phoenix,85053,Arizona,AZ,United States,"16401 North 43rd Avenue, Phoenix AZ 85053",North America
1750 W Thunderbird Rd,Phoenix,85023,Arizona,AZ,United States,"1750 W Thunderbird Rd, Phoenix AZ 85023",North America
2045 W. Northern Avenue,Phoenix,85021,Arizona,AZ,United States,"2045 W. Northern Avenue, Phoenix AZ 85021",North America
2217 W Glendale Ave,Phoenix,85021,Arizona,AZ,United States,"2217 W Glendale Ave, Phoenix AZ 85021",North America
2616 E. Greenway Rd.,Phoenix,85032,Arizona,AZ,United States,"2616 E. Greenway Rd., Phoenix AZ 85032",North America
3005 E. Fillmore Street,Phoenix,85008,Arizona,AZ,United States,"3005 E. Fillmore Street, Phoenix AZ 85008",North America
3625 West Cactus Road,Phoenix,85029,Arizona,AZ,United States,"3625 West Cactus Road, Phoenix AZ 85029",North America
3660 W. Glendale Avenue,Phoenix,85051,Arizona,AZ,United States,"3660 W. Glendale Avenue, Phoenix AZ 85051",North America
3802 W. Maryland Avenue,Phoenix,85019,Arizona,AZ,United States,"3802 W. Maryland Avenue, Phoenix AZ 85019",North America
3835 W. Thomas Road,Phoenix,85019,Arizona,AZ,United States,"3835 W. Thomas Road, Phoenix AZ 85019",North America
4301 W. Fillmore Street,Phoenix,85027,Arizona,AZ,United States,"4301 W. Fillmore Street, Phoenix AZ 85027",North America
6036 South 27th Avenue,Phoenix,85041,Arizona,AZ,United States,"6036 South 27th Avenue, Phoenix AZ 85041",North America
715 W. Mariposa,Phoenix,85013,Arizona,AZ,United States,"715 W. Mariposa, Phoenix AZ 85013",North America
728 E. McDowell Rd.,Phoenix,85006,Arizona,AZ,United States,"728 E. McDowell Rd., Phoenix AZ 85006",North America
7544 W. Indian School Road Ste. 2A,Phoenix,85033,Arizona,AZ,United States,"7544 W. Indian School Road Ste. 2A, Phoenix AZ 85033",North America
38 E. 200 South,Pima,85543,Arizona,AZ,United States,"38 E. 200 South, Pima AZ 85543",North America
1200 W. White Mountain Blvd.,Pinetop-Lakeside,85929,Arizona,AZ,United States,"1200 W. White Mountain Blvd., Pinetop-Lakeside AZ 85929",North America
1 Mile North Navajo Route 4,Pinon,86510,Arizona,AZ,United States,"1 Mile North Navajo Route 4, Pinon AZ 86510",North America
510 Deill Street,Pittsburg,66762,Kansas,KS,United States,"510 Deill Street, Pittsburg KS 66762",North America
4500 Fifth Avenue,Pittsburgh,15213,Pennsylvania,PA,United States,"4500 Fifth Avenue, Pittsburgh PA 15213",North America
Ten 40th Street,Pittsburgh,15201,Pennsylvania,PA,United States,"Ten 40th Street, Pittsburgh PA 15201",North America
"100 Stellarator Road, Princeton New Jersey",Plainsboro Township,08536,New Jersey,NJ,United States,"100 Stellarator Road, Princeton New Jersey, Plainsboro Township NJ 08536",North America
1717 17th Street,Plano,75074,Texas,TX,United States,"1717 17th Street, Plano TX 75074",North America
2200 Independence Parkway,Plano,75075,Texas,TX,United States,"2200 Independence Parkway, Plano TX 75075",North America
3000 Los Rios Boulevard,Plano,75074,Texas,TX,United States,"3000 Los Rios Boulevard, Plano TX 75074",North America
5505 West Plano Parkway,Plano,75093,Texas,TX,United States,"5505 West Plano Parkway, Plano TX 75093",North America
5601 West Parker Road,Plano,75093,Texas,TX,United States,"5601 West Parker Road, Plano TX 75093",North America
704 W. Abe St.,Plano,60545,Illinois,IL,United States,"704 W. Abe St., Plano IL 60545",North America
6901 NW 16th Street,Plantation,33313,Florida,FL,United States,"6901 NW 16th Street, Plantation FL 33313",North America
710 East Madison Street,Platteville,53818,Wisconsin,WI,United States,"710 East Madison Street, Platteville WI 53818",North America
927 North Fifth Street,Ponca City,74601,Oklahoma,OK,United States,"927 North Fifth Street, Ponca City OK 74601",North America
117 W Livingston St,Pontiac,61764,Illinois,IL,United States,"117 W Livingston St, Pontiac IL 61764",North America
2100 Loveland Blvd,Port Charlotte,33980,Florida,FL,United States,"2100 Loveland Blvd, Port Charlotte FL 33980",North America
1401 Merriman,Port Neches,77651,Texas,TX,United States,"1401 Merriman, Port Neches TX 77651",North America
1500 SE 96th Avenue,Portland,97216,Oregon,OR,United States,"1500 SE 96th Avenue, Portland OR 97216",North America
476 Summit Street,Portland,04103-1619,Maine,ME,United States,"476 Summit Street, Portland ME 04103-1619",North America
325 N. Washington St.,Prescott,86301,Arizona,AZ,United States,"325 N. Washington St., Prescott AZ 86301",North America
5522 Side Road,Prescott,86301,Arizona,AZ,United States,"5522 Side Road, Prescott AZ 86301",North America
7497 E. Addis,Prescott Valley,86314,Arizona,AZ,United States,"7497 E. Addis, Prescott Valley AZ 86314",North America
9050 E Florentine Rd,Prescott Valley,86314,Arizona,AZ,United States,"9050 E Florentine Rd, Prescott Valley AZ 86314",North America
3570 Timpview Drive,Provo,84604,Utah,UT,United States,"3570 Timpview Drive, Provo UT 84604",North America
9 MacNeil Rd.,Pueblo,81001,Colorado,CO,United States,"9 MacNeil Rd., Pueblo CO 81001",North America
20061 E. Rittenhouse Road,Queen Creek,85142,Arizona,AZ,United States,"20061 E. Rittenhouse Road, Queen Creek AZ 85142",North America
23908 S. Hawes Rd,Queen Creek,85142,Arizona,AZ,United States,"23908 S. Hawes Rd, Queen Creek AZ 85142",North America
2119 Rapids Drive,Racine,53404,Wisconsin,WI,United States,"2119 Rapids Drive, Racine WI 53404",North America
2201 Spring Forest Road,Raleigh,27615,North Carolina,NC,United States,"2201 Spring Forest Road, Raleigh NC 27615",North America
"Indian Route 13, milepost 22",Red Valley,86544,Arizona,AZ,United States,"Indian Route 13, milepost 22, Red Valley AZ 86544",North America
2500 Eureka Way,Redding,96001,California,CA,United States,"2500 Eureka Way, Redding CA 96001",North America
2880 Sutro Street,Reno,89512,Nevada,NV,United States,"2880 Sutro Street, Reno NV 89512",North America
1600 North Coit Road,Richardson,75080,Texas,TX,United States,"1600 North Coit Road, Richardson TX 75080",North America
1220 Camino Lito Galindo,Rio Rico,85648,Arizona,AZ,United States,"1220 Camino Lito Galindo, Rio Rico AZ 85648",North America
5250 Fieldston Road,Riverdale,10471,New York,NY,United States,"5250 Fieldston Road, Riverdale NY 10471",North America
12476 S Silverwolf Way,Riverton,84065,Utah,UT,United States,"12476 S Silverwolf Way, Riverton UT 84065",North America
6758 Northside High School Road,Roanoke,24019,Virginia,VA,United States,"6758 Northside High School Road, Roanoke VA 24019",North America
1 Golden Bear Drive,Robertsdale,36567,Alabama,AL,United States,"1 Golden Bear Drive, Robertsdale AL 36567",North America
1139 Maiden Lane,Rochester,14615,New York,NY,United States,"1139 Maiden Lane, Rochester NY 14615",North America
120 Island Cottage Road,Rochester,14612,New York,NY,United States,"120 Island Cottage Road, Rochester NY 14612",North America
2503 West Main Street,Rock Hill,29732,South Carolina,SC,United States,"2503 West Main Street, Rock Hill SC 29732",North America
801 Neely Road,Rock Hill,29730,South Carolina,SC,United States,"801 Neely Road, Rock Hill SC 29730",North America
"PO Box 560, Highway 191",Rock Point,86545,Arizona,AZ,United States,"PO Box 560, Highway 191, Rock Point AZ 86545",North America
1408 South Goliad Street,Rockwall,75087,Texas,TX,United States,"1408 South Goliad Street, Rockwall TX 75087",North America
526 Panther Lane,Rome,18837,Pennsylvania,PA,United States,"526 Panther Lane, Rome PA 18837",North America
135 N Union,Roosevelt,84066,Utah,UT,United States,"135 N Union, Roosevelt UT 84066",North America
806 SE Rosalia Road,Rosalia,67132,Kansas,KS,United States,"806 SE Rosalia Road, Rosalia KS 67132",North America
1976 Thatcher Blvd.,Safford,85546,Arizona,AZ,United States,"1976 Thatcher Blvd., Safford AZ 85546",North America
734 11th Street,Safford,85546,Arizona,AZ,United States,"734 11th Street, Safford AZ 85546",North America
2102 Weiss Street,Saginaw,48602,Michigan,MI,United States,"2102 Weiss Street, Saginaw MI 48602",North America
2777 Hardin Street,Saginaw,48602,Michigan,MI,United States,"2777 Hardin Street, Saginaw MI 48602",North America
15510 S. Sahuarita Park Rd,Sahuarita,85629,Arizona,AZ,United States,"15510 S. Sahuarita Park Rd, Sahuarita AZ 85629",North America
1511 Gypsum Street,Salina,67401,Kansas,KS,United States,"1511 Gypsum Street, Salina KS 67401",North America
1100 East Mountain Parkway,Salyersville,41465,Kentucky,KY,United States,"1100 East Mountain Parkway, Salyersville KY 41465",North America
1621 University,San Angelo,76904,Texas,TX,United States,"1621 University, San Angelo TX 76904",North America
10703 Wurzbach Road,San Antonio,78230,Texas,TX,United States,"10703 Wurzbach Road, San Antonio TX 78230",North America
115 Auditorium Circle,San Antonio,78205,Texas,TX,United States,"115 Auditorium Circle, San Antonio TX 78205",North America
20955 West Tejas Trail,San Antonio,78257,Texas,TX,United States,"20955 West Tejas Trail, San Antonio TX 78257",North America
3000 North Foster Road,San Antonio,78244,Texas,TX,United States,"3000 North Foster Road, San Antonio TX 78244",North America
5150 DeZavala Road,San Antonio,78249,Texas,TX,United States,"5150 DeZavala Road, San Antonio TX 78249",North America
600 North Ellison Drive,San Antonio,78251,Texas,TX,United States,"600 North Ellison Drive, San Antonio TX 78251",North America
450 South Williams Road,San Benito,78586,Texas,TX,United States,"450 South Williams Road, San Benito TX 78586",North America
Highway 70 Mile Post 270,San Carlos,85550,Arizona,AZ,United States,"Highway 70 Mile Post 270, San Carlos AZ 85550",North America
500 Idyllwild Drive,San Jacinto,92583,California,CA,United States,"500 Idyllwild Drive, San Jacinto CA 92583",North America
1290 Parkmoor Avenue,San Jose,95126,California,CA,United States,"1290 Parkmoor Avenue, San Jose CA 95126",North America
555 Dana Avenue,San Jose,95126,California,CA,United States,"555 Dana Avenue, San Jose CA 95126",North America
6150 Snell Avenue,San Jose,95123-4740,California,CA,United States,"6150 Snell Avenue, San Jose CA 95123-4740",North America
711 McNab Pkwy.,San Manuel,85631,Arizona,AZ,United States,"711 McNab Pkwy., San Manuel AZ 85631",North America
900 Alameda de las Pulgas,San Mateo,94402,California,CA,United States,"900 Alameda de las Pulgas, San Mateo CA 94402",North America
"2226 W. Business Loop I-10, Exit 378",San Simon,85632,Arizona,AZ,United States,"2226 W. Business Loop I-10, Exit 378, San Simon AZ 85632",North America
1255 W. Silverdale Road,San Tan Valley,85143,Arizona,AZ,United States,"1255 W. Silverdale Road, San Tan Valley AZ 85143",North America
2505 East Germann Road,San Tan Valley,85140,Arizona,AZ,United States,"2505 East Germann Road, San Tan Valley AZ 85140",North America
10400 Orr and Day Road,Santa Fe Springs,90670,California,CA,United States,"10400 Orr and Day Road, Santa Fe Springs CA 90670",North America
941 E. Foster Rd.,Santa Maria,93455,California,CA,United States,"941 E. Foster Rd., Santa Maria CA 93455",North America
11440 N. 136th Street,Scottsdale,85259,Arizona,AZ,United States,"11440 N. 136th Street, Scottsdale AZ 85259",North America
33401 N. 56th St.,Scottsdale,85255,Arizona,AZ,United States,"33401 N. 56th St., Scottsdale AZ 85255",North America
4827 N. Country Club Dr.,Scottsdale,85256,Arizona,AZ,United States,"4827 N. Country Club Dr., Scottsdale AZ 85256",North America
5802 E. Dove Valley Rd.,Scottsdale,85266,Arizona,AZ,United States,"5802 E. Dove Valley Rd., Scottsdale AZ 85266",North America
7501 East Virginia Avenue,Scottsdale,85257,Arizona,AZ,United States,"7501 East Virginia Avenue, Scottsdale AZ 85257",North America
9180 East Via de Ventura,Scottsdale,85258,Arizona,AZ,United States,"9180 East Via de Ventura, Scottsdale AZ 85258",North America
1201 Luzerne Street,Scranton,18504,Pennsylvania,PA,United States,"1201 Luzerne Street, Scranton PA 18504",North America
63 Mike Munchak Way,Scranton,18508,Pennsylvania,PA,United States,"63 Mike Munchak Way, Scranton PA 18508",North America
995 Upper Red Rock Loop Road,Sedona,86336,Arizona,AZ,United States,"995 Upper Red Rock Loop Road, Sedona AZ 86336",North America
500 N. Main Street,Seligman,86337,Arizona,AZ,United States,"500 N. Main Street, Seligman AZ 86337",North America
500 Broad St.,Selinsgrove,17870,Pennsylvania,PA,United States,"500 Broad St., Selinsgrove PA 17870",North America
AZ SR 86 and Indian Route 19,Sells,85634,Arizona,AZ,United States,"AZ SR 86 and Indian Route 19, Sells AZ 85634",North America
209 University Avenue,Sewanee,37375,Tennessee,TN,United States,"209 University Avenue, Sewanee TN 37375",North America
290 Quintard Rd.,Sewanee,37375,Tennessee,TN,United States,"290 Quintard Rd., Sewanee TN 37375",North America
2201 E Lamar St.,Sherman,75090-6599,Texas,TX,United States,"2201 E Lamar St., Sherman TX 75090-6599",North America
3900 Stansbury Avenue,Sherman Oaks,91423,California,CA,United States,"3900 Stansbury Avenue, Sherman Oaks CA 91423",North America
"13400 Riverside Drive, Suite 211",Sherman Oaks,91423,California,CA,United States,"13400 Riverside Drive, Suite 211, Sherman Oaks CA 91423",North America
8331 Gratiot Road,Shields,48609,Michigan,MI,United States,"8331 Gratiot Road, Shields MI 48609",North America
500 W. Old Linden Rd.,Show Low,85901,Arizona,AZ,United States,"500 W. Old Linden Rd., Show Low AZ 85901",North America
7425 Broadacres Road,Shreveport,71129,Louisiana,LA,United States,"7425 Broadacres Road, Shreveport LA 71129",North America
955 Sligo Avenue,Silver Spring,20910,Maryland,MD,United States,"955 Sligo Avenue, Silver Spring MD 20910",North America
1200 Michigan St,Socorro,87801-1367,New Mexico,NM,United States,"1200 Michigan St, Socorro NM 87801-1367",North America
113 East 7th Street,Solomon,67480,Kansas,KS,United States,"113 East 7th Street, Solomon KS 67480",North America
40 Bulls Bridge Road,South Kent,06785,Connecticut,CT,United States,"40 Bulls Bridge Road, South Kent CT 06785",North America
801 15th Avenue,South Milwaukee,53172,Wisconsin,WI,United States,"801 15th Avenue, South Milwaukee WI 53172",North America
20811 Ella Boulevard,Spring,77388,Texas,TX,United States,"20811 Ella Boulevard, Spring TX 77388",North America
5240 Highway 76 East,Springfield,37172,Tennessee,TN,United States,"5240 Highway 76 East, Springfield TN 37172",North America
2980 Collins Road,St. Augustine,32084,Florida,FL,United States,"2980 Collins Road, St. Augustine FL 32084",North America
740 Maple Dr PO BOX 130,St. Croix Falls,54024,Wisconsin,WI,United States,"740 Maple Dr PO BOX 130, St. Croix Falls WI 54024",North America
828 East Desert Hills Drive,St. George,84790,Utah,UT,United States,"828 East Desert Hills Drive, St. George UT 84790",North America
360 S. Redskin Drive,St. Johns,85936,Arizona,AZ,United States,"360 S. Redskin Drive, St. Johns AZ 85936",North America
1201 South Warson Road,St. Louis,63124,Missouri,MO,United States,"1201 South Warson Road, St. Louis MO 63124",North America
111 West North Street,Stamford,06902,Connecticut,CT,United States,"111 West North Street, Stamford CT 06902",North America
44 Commerce Road,Stamford,06902,Connecticut,CT,United States,"44 Commerce Road, Stamford CT 06902",North America
44 Commerce Road,Stamford,06902,Connecticut,CT,United States,"44 Commerce Road, Stamford CT 06902",North America
903 East 800 North Road,Stanford,61774-9612,Illinois,IL,United States,"903 East 800 North Road, Stanford IL 61774-9612",North America
235 W. Frederick St.,Staunton,24401,Virginia,VA,United States,"235 W. Frederick St., Staunton VA 24401",North America
26255 Valencia Boulevard,Stevenson Ranch,91381,California,CA,United States,"26255 Valencia Boulevard, Stevenson Ranch CA 91381",North America
1 North Sutter St.,Stockton,95202,California,CA,United States,"1 North Sutter St., Stockton CA 95202",North America
2929 Windflower Ln,Stockton,95212,California,CA,United States,"2929 Windflower Ln, Stockton CA 95212",North America
349 East Vine Street,Stockton,95202,California,CA,United States,"349 East Vine Street, Stockton CA 95202",North America
701 N Madison St,Stockton,95202,California,CA,United States,"701 N Madison St, Stockton CA 95202",North America
2482 Mercer Street,Stoneboro,16153-2799,Pennsylvania,PA,United States,"2482 Mercer Street, Stoneboro PA 16153-2799",North America
123 Linden Street,Stroudsburg,18360,Pennsylvania,PA,United States,"123 Linden Street, Stroudsburg PA 18360",North America
777 SE Salerno Road,Stuart,34997,Florida,FL,United States,"777 SE Salerno Road, Stuart FL 34997",North America
201 182 Drive,Sunny Isles Beach,33160,Florida,FL,United States,"201 182 Drive, Sunny Isles Beach FL 33160",North America
100 Mary Drive,Superior,85173,Arizona,AZ,United States,"100 Mary Drive, Superior AZ 85173",North America
10909 N. Perryville Road,Surprise,85388,Arizona,AZ,United States,"10909 N. Perryville Road, Surprise AZ 85388",North America
12775 N. 175th Avenue,Surprise,85388,Arizona,AZ,United States,"12775 N. 175th Avenue, Surprise AZ 85388",North America
15550 N Parkview Place,Surprise,85374,Arizona,AZ,United States,"15550 N Parkview Place, Surprise AZ 85374",North America
16011 N. Dysart Rd.,Surprise,85374,Arizona,AZ,United States,"16011 N. Dysart Rd., Surprise AZ 85374",North America
17901 W Lundberg St,Surprise,85388,Arizona,AZ,United States,"17901 W Lundberg St, Surprise AZ 85388",North America
1800 Buffalo Gap Highway,Swoope,24479,Virginia,VA,United States,"1800 Buffalo Gap Highway, Swoope VA 24479",North America
919 Glenwood Ave,Syracuse,13207,New York,NY,United States,"919 Glenwood Ave, Syracuse NY 13207",North America
20150 Bruce B Downs Boulevard,Tampa,33647,Florida,FL,United States,"20150 Bruce B Downs Boulevard, Tampa FL 33647",North America
"444 Water Lane, PO Box 158",Tappahannock,22560,Virginia,VA,United States,"444 Water Lane, PO Box 158, Tappahannock VA 22560",North America
1318 Alabama Street,Tarrant,35217,Alabama,AL,United States,"1318 Alabama Street, Tarrant AL 35217",North America
5225 S. Redwood Road,Taylorsville,84129,Utah,UT,United States,"5225 S. Redwood Road, Taylorsville UT 84129",North America
5040 S. Price Rd.,Tempe,85282,Arizona,AZ,United States,"5040 S. Price Rd., Tempe AZ 85282",North America
5301 South McClintock Drive,Tempe,85283,Arizona,AZ,United States,"5301 South McClintock Drive, Tempe AZ 85283",North America
4141 West FM 93,Temple,76502,Texas,TX,United States,"4141 West FM 93, Temple TX 76502",North America
4001 Summerhill Road,Texarkana,75503,Texas,TX,United States,"4001 Summerhill Road, Texarkana TX 75503",North America
601 N. 3rd Avenue,Thatcher,85552,Arizona,AZ,United States,"601 N. 3rd Avenue, Thatcher AZ 85552",North America
6201 Swedetown Road N,Theodore,36582,Alabama,AL,United States,"6201 Swedetown Road N, Theodore AL 36582",North America
1355 Tiger Drive,Thibodaux,70301,Louisiana,LA,United States,"1355 Tiger Drive, Thibodaux LA 70301",North America
9419 West Van Buren Steet,Tolleson,85353,Arizona,AZ,United States,"9419 West Van Buren Steet, Tolleson AZ 85353",North America
1211 Yellow Jacket Way,Tombstone,85635,Arizona,AZ,United States,"1211 Yellow Jacket Way, Tombstone AZ 85635",North America
38201 W. Indian School Road,Tonopah,85354,Arizona,AZ,United States,"38201 W. Indian School Road, Tonopah AZ 85354",North America
2200 W. Carson Street,Torrance,90501,California,CA,United States,"2200 W. Carson Street, Torrance CA 90501",North America
261 South Greenway Drive,Trinity,35673,Alabama,AL,United States,"261 South Greenway Drive, Trinity AL 35673",North America
Warrior Drive,Tuba City,86045,Arizona,AZ,United States,"Warrior Drive, Tuba City AZ 86045",North America
1215 E Lowell St.,Tucson,85721-0045,Arizona,AZ,United States,"1215 E Lowell St., Tucson AZ 85721-0045",North America
2797 N Introspect Drive,Tucson,85745,Arizona,AZ,United States,"2797 N Introspect Drive, Tucson AZ 85745",North America
3231 N. Craycroft Road,Tucson,85712,Arizona,AZ,United States,"3231 N. Craycroft Road, Tucson AZ 85712",North America
326 W. Fort Lowell Rd.,Tucson,85705,Arizona,AZ,United States,"326 W. Fort Lowell Rd., Tucson AZ 85705",North America
"3725 N. Flowing Wells Road, Flowing Wells",Tucson,85705,Arizona,AZ,United States,"3725 N. Flowing Wells Road, Flowing Wells, Tucson AZ 85705",North America
3901 West Linda Vista Boulevard,Tucson,85742,Arizona,AZ,United States,"3901 West Linda Vista Boulevard, Tucson AZ 85742",North America
5040 S. Campbell Ave.,Tucson,85706,Arizona,AZ,United States,"5040 S. Campbell Ave., Tucson AZ 85706",North America
7820 E. Wrightstown Road,Tucson,85715,Arizona,AZ,United States,"7820 E. Wrightstown Road, Tucson AZ 85715",North America
8250 East 22nd Street,Tucson,85710,Arizona,AZ,United States,"8250 East 22nd Street, Tucson AZ 85710",North America
"9500 N. Oracle Road, 6450 N. Camino Miraval",Tucson,85704,Arizona,AZ,United States,"9500 N. Oracle Road, 6450 N. Camino Miraval, Tucson AZ 85704",North America
6315 Mary Harmon Bryant Drive,Tuscaloosa,35453,Alabama,AL,United States,"6315 Mary Harmon Bryant Drive, Tuscaloosa AL 35453",North America
1171 El Camino Real,Tustin,92780-4660,California,CA,United States,"1171 El Camino Real, Tustin CA 92780-4660",North America
411 E Southeast Loop 323,Tyler,75701-9699,Texas,TX,United States,"411 E Southeast Loop 323, Tyler TX 75701-9699",North America
Spring Street Rd,Union Springs,13160,New York,NY,United States,"Spring Street Rd, Union Springs NY 13160",North America
800 North Sandusky Avenue,Upper Sandusky,43351,Ohio,OH,United States,"800 North Sandusky Avenue, Upper Sandusky OH 43351",North America
143 South Meridian,Valley Center,67147,Kansas,KS,United States,"143 South Meridian, Valley Center KS 67147",North America
2102 Yucca Lane,Vernon,76384-4999,Texas,TX,United States,"2102 Yucca Lane, Vernon TX 76384-4999",North America
1624 Hunter Mill Road,Vienna,22182,Virginia,VA,United States,"1624 Hunter Mill Road, Vienna VA 22182",North America
2900 Sutton Road,Vienna,22181,Virginia,VA,United States,"2900 Sutton Road, Vienna VA 22181",North America
1401 Laurel Oak Road,Voorhees,08043,New Jersey,NJ,United States,"1401 Laurel Oak Road, Voorhees NJ 08043",North America
1515 California Avenue,Wahiawa,96786,Hawaii,HI,United States,"1515 California Avenue, Wahiawa HI 96786",North America
85-251 Farrington Highway,Waianae,96792,Hawaii,HI,United States,"85-251 Farrington Highway, Waianae HI 96792",North America
1650 Ka'ahumanu Avenue,Wailuku,96793,Hawaii,HI,United States,"1650 Ka'ahumanu Avenue, Wailuku HI 96793",North America
94-1211 Farrington Highway,Waipahu,96797,Hawaii,HI,United States,"94-1211 Farrington Highway, Waipahu HI 96797",North America
200 South Providence Road,Wallingford,19086,Pennsylvania,PA,United States,"200 South Providence Road, Wallingford PA 19086",North America
1100 N. Grand Ave,Walnut,91789,California,CA,United States,"1100 N. Grand Ave, Walnut CA 91789",North America
1460 South Main St.,Walnut Creek,94596,California,CA,United States,"1460 South Main St., Walnut Creek CA 94596",North America
510 East Highway 24,Wamego,66547,Kansas,KS,United States,"510 East Highway 24, Wamego KS 66547",North America
5300 Northwest 50th Street,Warr Acres,73122,Oklahoma,OK,United States,"5300 Northwest 50th Street, Warr Acres OK 73122",North America
1411 S. Ridgeview Drive,Warrensburg,64093,Missouri,MO,United States,"1411 S. Ridgeview Drive, Warrensburg MO 64093",North America
6480 College Street,Warrenton,20187,Virginia,VA,United States,"6480 College Street, Warrenton VA 20187",North America
5606 River Road,Waunakee,53597,Wisconsin,WI,United States,"5606 River Road, Waunakee WI 53597",North America
12150 Vespa Way,Weeki Wachee,34614,Florida,FL,United States,"12150 Vespa Way, Weeki Wachee FL 34614",North America
9168 S. Avenue 36E,Wellton,85356,Arizona,AZ,United States,"9168 S. Avenue 36E, Wellton AZ 85356",North America
521 South 16th Street,West Columbia,77486,Texas,TX,United States,"521 South 16th Street, West Columbia TX 77486",North America
1222 South State Road 263,West Lebanon,47991,Indiana,IN,United States,"1222 South State Road 263, West Lebanon IN 47991",North America
201 Riggs Street,West Monroe,71291,Louisiana,LA,United States,"201 Riggs Street, West Monroe LA 71291",North America
1 Webster Knight Dr,West Warwick,02893,Rhode Island,RI,United States,"1 Webster Knight Dr, West Warwick RI 02893",North America
130 West Park Avenue,Wheaton,60189,Illinois,IL,United States,"130 West Park Avenue, Wheaton IL 60189",North America
414 East Goodnow Street,White City,66872,Kansas,KS,United States,"414 East Goodnow Street, White City KS 66872",North America
1020 West Holland Avenue,White Hall,71602-9572,Arkansas,AR,United States,"1020 West Holland Avenue, White Hall AR 71602-9572",North America
110 South Main Street,Whitewater,67154,Kansas,KS,United States,"110 South Main Street, Whitewater KS 67154",North America
201 North Water Street,Wichita,67202,Kansas,KS,United States,"201 North Water Street, Wichita KS 67202",North America
1090 S. Vulture Mine Road,Wickenburg,85390,Arizona,AZ,United States,"1090 S. Vulture Mine Road, Wickenburg AZ 85390",North America
240 N. Bisbee Avenue,Willcox,85643,Arizona,AZ,United States,"240 N. Bisbee Avenue, Willcox AZ 85643",North America
440 S. 7th Street,Williams,86046,Arizona,AZ,United States,"440 S. 7th Street, Williams AZ 86046",North America
"901 Penn Street,",Williamsport,17701,Pennsylvania,PA,United States,"901 Penn Street,, Williamsport PA 17701",North America
300 Helton St.,Williamstown,41097,Kentucky,KY,United States,"300 Helton St., Williamstown KY 41097",North America
1595 Hopkins Road,Williamsville,14221,New York,NY,United States,"1595 Hopkins Road, Williamsville NY 14221",North America
1013 Eastwood Road,Wilmington,28403,North Carolina,NC,United States,"1013 Eastwood Road, Wilmington NC 28403",North America
6410 Carolina Beach Road,Wilmington,28412,North Carolina,NC,United States,"6410 Carolina Beach Road, Wilmington NC 28412",North America
824 Thorne Avenue,Winkelman,85192,Arizona,AZ,United States,"824 Thorne Avenue, Winkelman AZ 85192",North America
200 East McNair Road,Winnebago,61088,Illinois,IL,United States,"200 East McNair Road, Winnebago IL 61088",North America
2100 Summerfield Road,Winter Park,32792,Florida,FL,United States,"2100 Summerfield Road, Winter Park FL 32792",North America
676 Baseline Road,Winterhaven,92283,California,CA,United States,"676 Baseline Road, Winterhaven CA 92283",North America
7 MBL Street,Woods Hole,02543-1015,Massachusetts,MA,United States,"7 MBL Street, Woods Hole MA 02543-1015",North America
Hwy 288 at Baker Ranch Rd,Young,85554,Arizona,AZ,United States,"Hwy 288 at Baker Ranch Rd, Young AZ 85554",North America
4061 Creek Road,Youngstown,14174,New York,NY,United States,"4061 Creek Road, Youngstown NY 14174",North America
4401 Southern Boulevard,Youngstown,44512,Ohio,OH,United States,"4401 Southern Boulevard, Youngstown OH 44512",North America
1777 S. Yukon Parkway,Yukon,73099,Oklahoma,OK,United States,"1777 S. Yukon Parkway, Yukon OK 73099",North America
16 avenue douard Grinda,Nice,06000,Provence-Alpes-Cte d'Azur,,France,"16 avenue douard Grinda, 06000 Nice",Europe
158 boulevard Haussmann,Paris,75001,le-de-France,,France,"158 boulevard Haussmann, 75001 Paris",Europe
37 quai Branly,Paris,75001,le-de-France,,France,"37 quai Branly, 75001 Paris",Europe
14 cours de Verdun,Lyon,69001,Auvergne-Rhne-Alpes,,France,"14 cours de Verdun, 69001 Lyon",Europe
2 place Louis Comte,Saint-tienne,42000,Auvergne-Rhne-Alpes,,France,"2 place Louis Comte, 42000 Saint-tienne",Europe
58 cours Belsunce,Marseille,13001,Provence-Alpes-Cte d'Azur,,France,"58 cours Belsunce, 13001 Marseille",Europe
51 Avenue du Marchal de Lattre de Tassigny,Crteil,94000,le-de-France,,France,"51 Avenue du Marchal de Lattre de Tassigny, 94000 Crteil",Europe
1 place Robert Fernier,Ornans,25290,Bourgogne-Franche-Comt,,France,"1 place Robert Fernier, 25290 Ornans",Europe
192 avenue de Colmar Mulhouse,Mulhouse,68100,Grand Est,,France,"192 avenue de Colmar Mulhouse, 68100 Mulhouse",Europe
261 boulevard Raspail,Paris,75001,le-de-France,,France,"261 boulevard Raspail, 75001 Paris",Europe
6 rue des Cristalleries,Baccarat,54120,Grand Est,,France,"6 rue des Cristalleries, 54120 Baccarat",Europe
4 Rue de l'cole,Merkwiller-Pechelbronn,67250,Grand Est,,France,"4 Rue de l'cole, 67250 Merkwiller-Pechelbronn",Europe
74 boulevard de Port-Royal,Paris,75001,le-de-France,,France,"74 boulevard de Port-Royal, 75001 Paris",Europe
42 quai de Dogneville,pinal,88000,Grand Est,,France,"42 quai de Dogneville, 88000 pinal",Europe
18 rue Voltaire,Nantes,44000,Pays de la Loire,,France,"18 rue Voltaire, 44000 Nantes",Europe
3 place du Chteau,Strasbourg,67000,Grand Est,,France,"3 place du Chteau, 67000 Strasbourg",Europe
24 place Dauphine,Paris,75001,le-de-France,,France,"24 place Dauphine, 75001 Paris",Europe
187 rue Saint-Jacques,Paris,75001,le-de-France,,France,"187 rue Saint-Jacques, 75001 Paris",Europe
1 avenue du Corps Europen,Fleury-devant-Douaumont,55100,Grand Est,,France,"1 avenue du Corps Europen, 55100 Fleury-devant-Douaumont",Europe
165 chemin du Grand-Revoyet,Pierre-Bnite,69310,Auvergne-Rhne-Alpes,,France,"165 chemin du Grand-Revoyet, 69310 Pierre-Bnite",Europe
66 rue Pergolse,Paris,75001,le-de-France,,France,"66 rue Pergolse, 75001 Paris",Europe
5 place d'Arsonval,Lyon,69001,Auvergne-Rhne-Alpes,,France,"5 place d'Arsonval, 69001 Lyon",Europe
151 boulevard Saint-Germain,Paris,75001,le-de-France,,France,"151 boulevard Saint-Germain, 75001 Paris",Europe
29 rue Manin,Paris,75001,le-de-France,,France,"29 rue Manin, 75001 Paris",Europe
4 parvis Corentin-Celton,Issy-les-Moulineaux,92130,le-de-France,,France,"4 parvis Corentin-Celton, 92130 Issy-les-Moulineaux",Europe
9 avenue Charles-de-Gaulle,Boulogne-Billancourt,92100,le-de-France,,France,"9 avenue Charles-de-Gaulle, 92100 Boulogne-Billancourt",Europe
157 rue de la Porte de Trivaux,Clamart,92140,le-de-France,,France,"157 rue de la Porte de Trivaux, 92140 Clamart",Europe
178 rue des Renouillers,Colombes,92700,le-de-France,,France,"178 rue des Renouillers, 92700 Colombes",Europe
7 avenue de la Rpublique,Ivry-sur-Seine,94200,le-de-France,,France,"7 avenue de la Rpublique, 94200 Ivry-sur-Seine",Europe
12 avenue Paul-Vaillant-Couturier,Villejuif,94800,le-de-France,,France,"12 avenue Paul-Vaillant-Couturier, 94800 Villejuif",Europe
1 rue Eugne Delacroix,Draveil,91210,le-de-France,,France,"1 rue Eugne Delacroix, 91210 Draveil",Europe
200 rue du Faubourg-Saint-Denis,Paris,75001,le-de-France,,France,"200 rue du Faubourg-Saint-Denis, 75001 Paris",Europe
4 rue de la Chine,Paris,75001,le-de-France,,France,"4 rue de la Chine, 75001 Paris",Europe
11 rue Chardon-Lagache,Paris,75001,le-de-France,,France,"11 rue Chardon-Lagache, 75001 Paris",Europe
33 rue du Fer  Moulin,Paris,75001,le-de-France,,France,"33 rue du Fer  Moulin, 75001 Paris",Europe
48 boulevard Srurier,Paris,75001,le-de-France,,France,"48 boulevard Srurier, 75001 Paris",Europe
46 rue Henri-Huchard,Paris,75001,le-de-France,,France,"46 rue Henri-Huchard, 75001 Paris",Europe
27 rue du Faubourg-Saint-Jacques,Paris,75001,le-de-France,,France,"27 rue du Faubourg-Saint-Jacques, 75001 Paris",Europe
6 place de la Rpublique,Strasbourg,67000,Grand Est,,France,"6 place de la Rpublique, 67000 Strasbourg",Europe
1 rue des Unterlinden,Colmar,68000,Grand Est,,France,"1 rue des Unterlinden, 68000 Colmar",Europe
45 bis avenue de la Belle-Gabrielle,Paris,75001,le-de-France,,France,"45 bis avenue de la Belle-Gabrielle, 75001 Paris",Europe
8 rue des Acadiens,Nantes,44000,Pays de la Loire,,France,"8 rue des Acadiens, 44000 Nantes",Europe
106 rue la Fayette,Paris,75001,le-de-France,,France,"106 rue la Fayette, 75001 Paris",Europe
17 rue Sainte-Anne,Dijon,21000,Bourgogne-Franche-Comt,,France,"17 rue Sainte-Anne, 21000 Dijon",Europe
58 alles Charles-de-Fitte,Toulouse,31000,Occitanie,,France,"58 alles Charles-de-Fitte, 31000 Toulouse",Europe
3 Place Stanislas,Nancy,54000,Grand Est,,France,"3 Place Stanislas, 54000 Nancy",Europe
8 rue Montaigne,Vannes,56000,Bretagne,,France,"8 rue Montaigne, 56000 Vannes",Europe
6 place Saint-Germain-des-Prs,Paris,75001,le-de-France,,France,"6 place Saint-Germain-des-Prs, 75001 Paris",Europe
69 avenue de Paris,Saint-Mand,94160,le-de-France,,France,"69 avenue de Paris, 94160 Saint-Mand",Europe
28 rue Laennec,Lyon,69001,Auvergne-Rhne-Alpes,,France,"28 rue Laennec, 69001 Lyon",Europe
7 rue Ferrre,Bordeaux,33000,Nouvelle-Aquitaine,,France,"7 rue Ferrre, 33000 Bordeaux",Europe
158 cours Fauriel,Saint-tienne,42000,Auvergne-Rhne-Alpes,,France,"158 cours Fauriel, 42000 Saint-tienne",Europe
54 Rue Chaudrier,La Rochelle,17000,Nouvelle-Aquitaine,,France,"54 Rue Chaudrier, 17000 La Rochelle",Europe
86 Quai Perrache,Lyon,69001,Auvergne-Rhne-Alpes,,France,"86 Quai Perrache, 69001 Lyon",Europe
25 rue Barbet-de-Jouy,Paris,75001,le-de-France,,France,"25 rue Barbet-de-Jouy, 75001 Paris",Europe
59 avenue Foch,Paris,75001,le-de-France,,France,"59 avenue Foch, 75001 Paris",Europe
22 rue des Alouettes,Paris,75001,le-de-France,,France,"22 rue des Alouettes, 75001 Paris",Europe
17 avenue Franklin-D.-Roosevelt,Paris,75001,le-de-France,,France,"17 avenue Franklin-D.-Roosevelt, 75001 Paris",Europe
78 rue de la Convention,Paris,75001,le-de-France,,France,"78 rue de la Convention, 75001 Paris",Europe
12 avenue de la Rsistance,Valenay,36600,Centre-Val de Loire,,France,"12 avenue de la Rsistance, 36600 Valenay",Europe
5 place du Chteau,Strasbourg,67000,Grand Est,,France,"5 place du Chteau, 67000 Strasbourg",Europe
2 rue du Vieux-March-aux-Poissons,Strasbourg,67000,Grand Est,,France,"2 rue du Vieux-March-aux-Poissons, 67000 Strasbourg",Europe
28 place de la Madeleine,Paris,75001,le-de-France,,France,"28 place de la Madeleine, 75001 Paris",Europe
11 rue Poulbot,Paris,75001,le-de-France,,France,"11 rue Poulbot, 75001 Paris",Europe
4 boulevard Gambetta,vreux,27000,Normandie,,France,"4 boulevard Gambetta, 27000 vreux",Europe
1 alle du Grand Chne,Portet-sur-Garonne,31120,Occitanie,,France,"1 alle du Grand Chne, 31120 Portet-sur-Garonne",Europe
100 boulevard du Gnral-Leclerc,Clichy,92110,le-de-France,,France,"100 boulevard du Gnral-Leclerc, 92110 Clichy",Europe
26 avenue du Docteur-Arnold-Netter et rue Lasson,Paris,75001,le-de-France,,France,"26 avenue du Docteur-Arnold-Netter et rue Lasson, 75001 Paris",Europe
22 rue Anatole-France,Roanne,42300,Auvergne-Rhne-Alpes,,France,"22 rue Anatole-France, 42300 Roanne",Europe
65 rue Joseph-Vernet,Avignon,84000,Provence-Alpes-Cte d'Azur,,France,"65 rue Joseph-Vernet, 84000 Avignon",Europe
171 boulevard du Montparnasse,Paris,75001,le-de-France,,France,"171 boulevard du Montparnasse, 75001 Paris",Europe
12 rue Voltaire,Nantes,44000,Pays de la Loire,,France,"12 rue Voltaire, 44000 Nantes",Europe
28 rue Albert Ier,La Rochelle,17000,Nouvelle-Aquitaine,,France,"28 rue Albert Ier, 17000 La Rochelle",Europe
5 rue Las Cases,Paris,75001,le-de-France,,France,"5 rue Las Cases, 75001 Paris",Europe
13 vieille route des Pensires,Veyrier-du-Lac,74290,Auvergne-Rhne-Alpes,,France,"13 vieille route des Pensires, 74290 Veyrier-du-Lac",Europe
49 rue du Gnral-de-Gaulle,Reims,51100,Grand Est,,France,"49 rue du Gnral-de-Gaulle, 51100 Reims",Europe
52 rue Saint-Pierre,Caen,14000,Normandie,,France,"52 rue Saint-Pierre, 14000 Caen",Europe
105 boulevard du Montparnasse,Paris,75001,le-de-France,,France,"105 boulevard du Montparnasse, 75001 Paris",Europe
40 rue de Mesly,Crteil,94000,le-de-France,,France,"40 rue de Mesly, 94000 Crteil",Europe
55 rue du Pturage,Mulhouse,68100,Grand Est,,France,"55 rue du Pturage, 68100 Mulhouse",Europe
1 rue Pierre-et-Marie-Curie,Paris,75001,le-de-France,,France,"1 rue Pierre-et-Marie-Curie, 75001 Paris",Europe
127 rue de Tocqueville,Paris,75001,le-de-France,,France,"127 rue de Tocqueville, 75001 Paris",Europe
4 place Monseigneur Berteaud,Tulle,19000,Nouvelle-Aquitaine,,France,"4 place Monseigneur Berteaud, 19000 Tulle",Europe
480 Chemin Sala,Montfort-en-Chalosse,40380,Nouvelle-Aquitaine,,France,"480 Chemin Sala, 40380 Montfort-en-Chalosse",Europe
156 Boulevard Baille,Marseille,13001,Provence-Alpes-Cte d'Azur,,France,"156 Boulevard Baille, 13001 Marseille",Europe
17 rue Barbet-de-Jouy,Paris,75001,le-de-France,,France,"17 rue Barbet-de-Jouy, 75001 Paris",Europe
1 place de Finlande,Paris,75001,le-de-France,,France,"1 place de Finlande, 75001 Paris",Europe
6 place des Vosges,Paris,75001,le-de-France,,France,"6 place des Vosges, 75001 Paris",Europe
264 rue Saint-Pierre,Marseille,13001,Provence-Alpes-Cte d'Azur,,France,"264 rue Saint-Pierre, 13001 Marseille",Europe
56 avenue d'Ina,Paris,75001,le-de-France,,France,"56 avenue d'Ina, 75001 Paris",Europe
28 avenue du Gnral-de-Gaulle,Bagnolet,93170,le-de-France,,France,"28 avenue du Gnral-de-Gaulle, 93170 Bagnolet",Europe
23 rue de l'glise,Lit-et-Mixe,40170,Nouvelle-Aquitaine,,France,"23 rue de l'glise, 40170 Lit-et-Mixe",Europe
112 place de la mairie,Sanguinet,40460,Nouvelle-Aquitaine,,France,"112 place de la mairie, 40460 Sanguinet",Europe
83 rue de Courcelles,Arbois,39600,Bourgogne-Franche-Comt,,France,"83 rue de Courcelles, 39600 Arbois",Europe
1 place Dsir-Brumbt,Haguenau,67500,Grand Est,,France,"1 place Dsir-Brumbt, 67500 Haguenau",Europe
22 cours Tourny,Prigueux,24000,Nouvelle-Aquitaine,,France,"22 cours Tourny, 24000 Prigueux",Europe
1 Ter Rue D'agier,Grenoble,38000,Auvergne-Rhne-Alpes,,France,"1 Ter Rue D'agier, 38000 Grenoble",Europe
495 avenue du Marchal Juin,Mont-de-Marsan,40000,Nouvelle-Aquitaine,,France,"495 avenue du Marchal Juin, 40000 Mont-de-Marsan",Europe
8 rue de la Gare,Sarre-Union,67260,Grand Est,,France,"8 rue de la Gare, 67260 Sarre-Union",Europe
25 Rue Jules Roch  Orchies,Orchies,59310,Hauts-de-France,,France,"25 Rue Jules Roch  Orchies, 59310 Orchies",Europe
78 rue Montorgueil,Paris,75001,le-de-France,,France,"78 rue Montorgueil, 75001 Paris",Europe
68 boulevard Pierre Semard,Toulouse,31000,Occitanie,,France,"68 boulevard Pierre Semard, 31000 Toulouse",Europe
22 Grande rue,Saint-Pre,89450,Bourgogne-Franche-Comt,,France,"22 Grande rue, 89450 Saint-Pre",Europe
10 avenue du Prsident-Wilson,Paris,75001,le-de-France,,France,"10 avenue du Prsident-Wilson, 75001 Paris",Europe
3 rue Royale,Paris,75001,le-de-France,,France,"3 rue Royale, 75001 Paris",Europe
215 avenue Anatole-France,Anzin,59410,Hauts-de-France,,France,"215 avenue Anatole-France, 59410 Anzin",Europe
1 rue de Talleyrand,Paris,75001,le-de-France,,France,"1 rue de Talleyrand, 75001 Paris",Europe
35 avenue Montaigne,Paris,75001,le-de-France,,France,"35 avenue Montaigne, 75001 Paris",Europe
12 rue Jean de La Fontaine,Chteau-Thierry,02400,Hauts-de-France,,France,"12 rue Jean de La Fontaine, 02400 Chteau-Thierry",Europe
1 place de l'hpital,Strasbourg,67000,Grand Est,,France,"1 place de l'hpital, 67000 Strasbourg",Europe
14 rue de la Dsire,La Rochelle,17000,Nouvelle-Aquitaine,,France,"14 rue de la Dsire, 17000 La Rochelle",Europe
12 rue de la Dsire,La Rochelle,17000,Nouvelle-Aquitaine,,France,"12 rue de la Dsire, 17000 La Rochelle",Europe
2 rue Saint-Cne,La Rochelle,17000,Nouvelle-Aquitaine,,France,"2 rue Saint-Cne, 17000 La Rochelle",Europe
17 avenue de La Fert-sous-Jouarre,Saint-Cyr-sur-Morin,77750,le-de-France,,France,"17 avenue de La Fert-sous-Jouarre, 77750 Saint-Cyr-sur-Morin",Europe
10 rue Fleuriau  La Rochelle,La Rochelle,17000,Nouvelle-Aquitaine,,France,"10 rue Fleuriau  La Rochelle, 17000 La Rochelle",Europe
2 rue Saint-Michel  La Rochelle,La Rochelle,17000,Nouvelle-Aquitaine,,France,"2 rue Saint-Michel  La Rochelle, 17000 La Rochelle",Europe
11 rue Raymond Joubert  Archingeay,Archingeay,17380,Nouvelle-Aquitaine,,France,"11 rue Raymond Joubert  Archingeay, 17380 Archingeay",Europe
33 rue du Temple,La Rochelle,17000,Nouvelle-Aquitaine,,France,"33 rue du Temple, 17000 La Rochelle",Europe
16 place Andr Dulin,Saint-Just-Luzac,17320,Nouvelle-Aquitaine,,France,"16 place Andr Dulin, 17320 Saint-Just-Luzac",Europe
5 Place de la Mairie,La Chapelle-des-Pots,17100,Nouvelle-Aquitaine,,France,"5 Place de la Mairie, 17100 La Chapelle-des-Pots",Europe
13 rue Magot de Rogville,Pont--Mousson,54700,Grand Est,,France,"13 rue Magot de Rogville, 54700 Pont--Mousson",Europe
9 rue Regnaud,Saint-Jean-d'Angly,17400,Nouvelle-Aquitaine,,France,"9 rue Regnaud, 17400 Saint-Jean-d'Angly",Europe
22 boulevard Suchet,Paris,75001,le-de-France,,France,"22 boulevard Suchet, 75001 Paris",Europe
12 boulevard Marchal-Lyautey,Grenoble,38000,Auvergne-Rhne-Alpes,,France,"12 boulevard Marchal-Lyautey, 38000 Grenoble",Europe
21 rue de Metz,Toulouse,31000,Occitanie,,France,"21 rue de Metz, 31000 Toulouse",Europe
5 rue Le Tasse,Paris,75001,le-de-France,,France,"5 rue Le Tasse, 75001 Paris",Europe
18 avenue Henri-Barbusse,Vitry-sur-Seine,94400,le-de-France,,France,"18 avenue Henri-Barbusse, 94400 Vitry-sur-Seine",Europe
4 rue des Bons Enfants,Dijon,21000,Bourgogne-Franche-Comt,,France,"4 rue des Bons Enfants, 21000 Dijon",Europe
85 rue du Cherche-Midi,Paris,75001,le-de-France,,France,"85 rue du Cherche-Midi, 75001 Paris",Europe
2 rue de la Basilique,Domrmy-la-Pucelle,88630,Grand Est,,France,"2 rue de la Basilique, 88630 Domrmy-la-Pucelle",Europe
2 rue de la Gare,Wintzenheim,68920,Grand Est,,France,"2 rue de la Gare, 68920 Wintzenheim",Europe
4 avenue de Perpignan,Canet-en-Roussillon,66140,Occitanie,,France,"4 avenue de Perpignan, 66140 Canet-en-Roussillon",Europe
17 rue de la Glapiney,Morteau,25500,Bourgogne-Franche-Comt,,France,"17 rue de la Glapiney, 25500 Morteau",Europe
1 route des Chteaux,Clrac,17270,Nouvelle-Aquitaine,,France,"1 route des Chteaux, 17270 Clrac",Europe
10 route Gare,Vergn,17330,Nouvelle-Aquitaine,,France,"10 route Gare, 17330 Vergn",Europe
17 Boulevard Roger Lteli-La Tremblade,La Tremblade,17390,Nouvelle-Aquitaine,,France,"17 Boulevard Roger Lteli-La Tremblade, 17390 La Tremblade",Europe
24 quai du Port-Saint-Savinien,Saint-Savinien,17350,Nouvelle-Aquitaine,,France,"24 quai du Port-Saint-Savinien, 17350 Saint-Savinien",Europe
10 rue Etoc-Demazy,Le Mans,72000,Pays de la Loire,,France,"10 rue Etoc-Demazy, 72000 Le Mans",Europe
1 rue de la Limoise-chillais,chillais,17620,Nouvelle-Aquitaine,,France,"1 rue de la Limoise-chillais, 17620 chillais",Europe
3 rue Rabelais,Paris,75001,le-de-France,,France,"3 rue Rabelais, 75001 Paris",Europe
44 rue de Montmoreau,Angoulme,16000,Nouvelle-Aquitaine,,France,"44 rue de Montmoreau, 16000 Angoulme",Europe
6 avenue des Lombards,Troyes,10000,Grand Est,,France,"6 avenue des Lombards, 10000 Troyes",Europe
6 Quai d'Orlans,Paris,75001,le-de-France,,France,"6 Quai d'Orlans, 75001 Paris",Europe
64 avenue Foch,Paris,75001,le-de-France,,France,"64 avenue Foch, 75001 Paris",Europe
12 rue Franklin Roosevelt,Reims,51100,Grand Est,,France,"12 rue Franklin Roosevelt, 51100 Reims",Europe
50 rue du Gnral-de-Gaulle,Saint-Denis,97400,La Runion,,France,"50 rue du Gnral-de-Gaulle, 97400 Saint-Denis",Europe
29 rue Saint Joseph Ouvrier,Saint-Denis,97400,La Runion,,France,"29 rue Saint Joseph Ouvrier, 97400 Saint-Denis",Europe
266 rue du Marchal-Leclerc,Saint-Denis,97400,La Runion,,France,"266 rue du Marchal-Leclerc, 97400 Saint-Denis",Europe
1 boulevard Loreau,Briare,45250,Centre-Val de Loire,,France,"1 boulevard Loreau, 45250 Briare",Europe
58 boulevard Buyser,Briare,45250,Centre-Val de Loire,,France,"58 boulevard Buyser, 45250 Briare",Europe
28 rue Bayard,Paris,75001,le-de-France,,France,"28 rue Bayard, 75001 Paris",Europe
12 avenue Arthur Gaulard,Besanon,25000,Bourgogne-Franche-Comt,,France,"12 avenue Arthur Gaulard, 25000 Besanon",Europe
50 rue de Lisbonne,Paris,75001,le-de-France,,France,"50 rue de Lisbonne, 75001 Paris",Europe
41 Avenue Flix Zoccola,Marseille,13001,Provence-Alpes-Cte d'Azur,,France,"41 Avenue Flix Zoccola, 13001 Marseille",Europe
184 rue du Faubourg-Saint-Antoine,Paris,75001,le-de-France,,France,"184 rue du Faubourg-Saint-Antoine, 75001 Paris",Europe
9 rue de la Rpublique,Draguignan,83300,Provence-Alpes-Cte d'Azur,,France,"9 rue de la Rpublique, 83300 Draguignan",Europe
2 avenue Foch,Brest,29200,Bretagne,,France,"2 avenue Foch, 29200 Brest",Europe
185 rue Raymond-Losserand,Paris,75001,le-de-France,,France,"185 rue Raymond-Losserand, 75001 Paris",Europe
6 rue Fabert,Paris,75001,le-de-France,,France,"6 rue Fabert, 75001 Paris",Europe
45 rue du Bourdon-Blanc,Orlans,45000,Centre-Val de Loire,,France,"45 rue du Bourdon-Blanc, 45000 Orlans",Europe
2 boulevard Dr. Verlhac,Brive-la-Gaillarde,19100,Nouvelle-Aquitaine,,France,"2 boulevard Dr. Verlhac, 19100 Brive-la-Gaillarde",Europe
8 place Saint-Martin,Montbliard,25200,Bourgogne-Franche-Comt,,France,"8 place Saint-Martin, 25200 Montbliard",Europe
3 rue du Muse,Wissembourg,67160,Grand Est,,France,"3 rue du Muse, 67160 Wissembourg",Europe
5 place de l'Eglise,Issy-les-Moulineaux,92130,le-de-France,,France,"5 place de l'Eglise, 92130 Issy-les-Moulineaux",Europe
24 rue Gontier-Patin,Abbeville,80100,Hauts-de-France,,France,"24 rue Gontier-Patin, 80100 Abbeville",Europe
40 Rue Worth,Suresnes,92150,le-de-France,,France,"40 Rue Worth, 92150 Suresnes",Europe
57 avenue de la Californie,Nice,06000,Provence-Alpes-Cte d'Azur,,France,"57 avenue de la Californie, 06000 Nice",Europe
20 rue Vaneau,Paris,75001,le-de-France,,France,"20 rue Vaneau, 75001 Paris",Europe
133 avenue de la Rsistance,Le Plessis-Robinson,92350,le-de-France,,France,"133 avenue de la Rsistance, 92350 Le Plessis-Robinson",Europe
77 avenue Marceau,Paris,75001,le-de-France,,France,"77 avenue Marceau, 75001 Paris",Europe
9 rue Vite,Paris,75001,le-de-France,,France,"9 rue Vite, 75001 Paris",Europe
7 quai de Conti,Paris,75001,le-de-France,,France,"7 quai de Conti, 75001 Paris",Europe
35 rue du Faubourg-Saint-Honor,Paris,75001,le-de-France,,France,"35 rue du Faubourg-Saint-Honor, 75001 Paris",Europe
21 avenue de Saxe,Paris,75001,le-de-France,,France,"21 avenue de Saxe, 75001 Paris",Europe
22 rue d'Aguesseau,Paris,75001,le-de-France,,France,"22 rue d'Aguesseau, 75001 Paris",Europe
22 rue Berlioz,Paris,75001,le-de-France,,France,"22 rue Berlioz, 75001 Paris",Europe
103 rue de Grenelle,Paris,75001,le-de-France,,France,"103 rue de Grenelle, 75001 Paris",Europe
4 avenue d'Ina,Paris,75001,le-de-France,,France,"4 avenue d'Ina, 75001 Paris",Europe
2 rue de Lbeck,Paris,75001,le-de-France,,France,"2 rue de Lbeck, 75001 Paris",Europe
2 boulevard de La Tour-Maubourg,Paris,75001,le-de-France,,France,"2 boulevard de La Tour-Maubourg, 75001 Paris",Europe
59 quai d'Orsay,Paris,75001,le-de-France,,France,"59 quai d'Orsay, 75001 Paris",Europe
30 rue des Marchands,Colmar,68000,Grand Est,,France,"30 rue des Marchands, 68000 Colmar",Europe
25 rue Georges-Bizet,Paris,75001,le-de-France,,France,"25 rue Georges-Bizet, 75001 Paris",Europe
22 rue Abel Guy,Jarnac,16200,Nouvelle-Aquitaine,,France,"22 rue Abel Guy, 16200 Jarnac",Europe
16 avenue de Lamballe,Paris,75001,le-de-France,,France,"16 avenue de Lamballe, 75001 Paris",Europe
20 rue Marbeau,Paris,75001,le-de-France,,France,"20 rue Marbeau, 75001 Paris",Europe
16 rue Murillo,Paris,75001,le-de-France,,France,"16 rue Murillo, 75001 Paris",Europe
140 grande rue,Besanon,25000,Bourgogne-Franche-Comt,,France,"140 grande rue, 25000 Besanon",Europe
67 boulevard Charles V,Honfleur,14600,Normandie,,France,"67 boulevard Charles V, 14600 Honfleur",Europe
125 rue du Ranelagh,Paris,75001,le-de-France,,France,"125 rue du Ranelagh, 75001 Paris",Europe
4 rue Klber,Levallois-Perret,92300,le-de-France,,France,"4 rue Klber, 92300 Levallois-Perret",Europe
1 rue de Sbastopol,Strasbourg,67000,Grand Est,,France,"1 rue de Sbastopol, 67000 Strasbourg",Europe
14 avenue Robert-Schuman,Paris,75001,le-de-France,,France,"14 avenue Robert-Schuman, 75001 Paris",Europe
24 rue Marbeau,Paris,75001,le-de-France,,France,"24 rue Marbeau, 75001 Paris",Europe
26 rue mile-Mnier,Paris,75001,le-de-France,,France,"26 rue mile-Mnier, 75001 Paris",Europe
20 bd du Gnral Guillaudot,Vannes,56000,Bretagne,,France,"20 bd du Gnral Guillaudot, 56000 Vannes",Europe
5 avenue Robert-Schuman,Boulogne-Billancourt,92100,le-de-France,,France,"5 avenue Robert-Schuman, 92100 Boulogne-Billancourt",Europe
80 boulevard Maurice-Barrs,Neuilly-sur-Seine,92200,le-de-France,,France,"80 boulevard Maurice-Barrs, 92200 Neuilly-sur-Seine",Europe
23 rue Galile,Paris,75001,le-de-France,,France,"23 rue Galile, 75001 Paris",Europe
7 quai Arthur-Rimbaud,Charleville-Mzires,08000,Grand Est,,France,"7 quai Arthur-Rimbaud, 08000 Charleville-Mzires",Europe
12 rue Jadin,Paris,75001,le-de-France,,France,"12 rue Jadin, 75001 Paris",Europe
16 rue Frdric Japy,Beaucourt,90500,Bourgogne-Franche-Comt,,France,"16 rue Frdric Japy, 90500 Beaucourt",Europe
11 rue Copernic,Paris,75001,le-de-France,,France,"11 rue Copernic, 75001 Paris",Europe
32 avenue Raphal,Paris,75001,le-de-France,,France,"32 avenue Raphal, 75001 Paris",Europe
3 villa Copernic,Paris,75001,le-de-France,,France,"3 villa Copernic, 75001 Paris",Europe
4 avenue Raphal,Paris,75001,le-de-France,,France,"4 avenue Raphal, 75001 Paris",Europe
12 avenue du Prsident-Kennedy,Paris,75001,le-de-France,,France,"12 avenue du Prsident-Kennedy, 75001 Paris",Europe
7 avenue Hoche,Paris,75001,le-de-France,,France,"7 avenue Hoche, 75001 Paris",Europe
108 boulevard du Montparnasse,Paris,75001,le-de-France,,France,"108 boulevard du Montparnasse, 75001 Paris",Europe
36 boulevard Gallieni,Nogent-sur-Marne,94130,le-de-France,,France,"36 boulevard Gallieni, 94130 Nogent-sur-Marne",Europe
11 rue de Turenne,Colmar,68000,Grand Est,,France,"11 rue de Turenne, 68000 Colmar",Europe
7 rue de Presbourg,Paris,75001,le-de-France,,France,"7 rue de Presbourg, 75001 Paris",Europe
3 bis place des tats-Unis,Paris,75001,le-de-France,,France,"3 bis place des tats-Unis, 75001 Paris",Europe
1 rue de l'glise,Sessenheim,67770,Grand Est,,France,"1 rue de l'glise, 67770 Sessenheim",Europe
8 rue Vaillant,Dijon,21000,Bourgogne-Franche-Comt,,France,"8 rue Vaillant, 21000 Dijon",Europe
17 rue Sainte-Anne,Dijon,21000,Bourgogne-Franche-Comt,,France,"17 rue Sainte-Anne, 21000 Dijon",Europe
405 promenade des Anglais,Nice,06000,Provence-Alpes-Cte d'Azur,,France,"405 promenade des Anglais, 06000 Nice",Europe
20 Grande Rue,Grenoble,38000,Auvergne-Rhne-Alpes,,France,"20 Grande Rue, 38000 Grenoble",Europe
1 route des Trois Ormeaux,Alise-Sainte-Reine,21150,Bourgogne-Franche-Comt,,France,"1 route des Trois Ormeaux, 21150 Alise-Sainte-Reine",Europe
1 rue du pont paquis,Juniville,08310,Grand Est,,France,"1 rue du pont paquis, 08310 Juniville",Europe
5 rue du Docteur-Maret,Dijon,21000,Bourgogne-Franche-Comt,,France,"5 rue du Docteur-Maret, 21000 Dijon",Europe
142 rue de Grenelle,Paris,75001,le-de-France,,France,"142 rue de Grenelle, 75001 Paris",Europe
18 rue Lord-Byron,Paris,75001,le-de-France,,France,"18 rue Lord-Byron, 75001 Paris",Europe
23 rue d'Artois,Paris,75001,le-de-France,,France,"23 rue d'Artois, 75001 Paris",Europe
5 rue de Montevideo,Paris,75001,le-de-France,,France,"5 rue de Montevideo, 75001 Paris",Europe
78 avenue d'Ina,Paris,75001,le-de-France,,France,"78 avenue d'Ina, 75001 Paris",Europe
7 rue Neuve Saint-Etienne,Limoges,87000,Nouvelle-Aquitaine,,France,"7 rue Neuve Saint-Etienne, 87000 Limoges",Europe
2 rue Ren-Heyms,Vesoul,70000,Bourgogne-Franche-Comt,,France,"2 rue Ren-Heyms, 70000 Vesoul",Europe
103 rue de la Valle,Bogny-sur-Meuse,08120,Grand Est,,France,"103 rue de la Valle, 08120 Bogny-sur-Meuse",Europe
32 rue des Farges,Prigueux,24000,Nouvelle-Aquitaine,,France,"32 rue des Farges, 24000 Prigueux",Europe
1 rue de l'Htel-de-Ville,Altkirch,68130,Grand Est,,France,"1 rue de l'Htel-de-Ville, 68130 Altkirch",Europe
1 monte de la citadelle,Saint-Tropez,83990,Provence-Alpes-Cte d'Azur,,France,"1 monte de la citadelle, 83990 Saint-Tropez",Europe
28 rue Albert Ier,La Rochelle,17000,Nouvelle-Aquitaine,,France,"28 rue Albert Ier, 17000 La Rochelle",Europe
59 boulevard Pinel,Bron,69500,Auvergne-Rhne-Alpes,,France,"59 boulevard Pinel, 69500 Bron",Europe
23 quai Marchal de Lattre de Tassigny,Ste,34200,Occitanie,,France,"23 quai Marchal de Lattre de Tassigny, 34200 Ste",Europe
10 rue Clovis-Hugues,Marseille,13001,Provence-Alpes-Cte d'Azur,,France,"10 rue Clovis-Hugues, 13001 Marseille",Europe
55 rue Marguerite-Yourcenar,Saint-Jans-Cappel,59270,Hauts-de-France,,France,"55 rue Marguerite-Yourcenar, 59270 Saint-Jans-Cappel",Europe
9 avenue Gabriel,Paris,75001,le-de-France,,France,"9 avenue Gabriel, 75001 Paris",Europe
3 rue de Rigny,Paris,75001,le-de-France,,France,"3 rue de Rigny, 75001 Paris",Europe
4 rue Jean-Rey,Paris,75001,le-de-France,,France,"4 rue Jean-Rey, 75001 Paris",Europe
16 rue de Presles,Paris,75001,le-de-France,,France,"16 rue de Presles, 75001 Paris",Europe
12 boulevard Paul Peytral,Marseille,13001,Provence-Alpes-Cte d'Azur,,France,"12 boulevard Paul Peytral, 13001 Marseille",Europe
18 rue Louis Vuitton,Asnires-sur-Seine,92600,le-de-France,,France,"18 rue Louis Vuitton, 92600 Asnires-sur-Seine",Europe
36 rue du Parc de Clagny Versailles,Versailles,78000,le-de-France,,France,"36 rue du Parc de Clagny Versailles, 78000 Versailles",Europe
5 rue de la Faisanderie,Paris,75001,le-de-France,,France,"5 rue de la Faisanderie, 75001 Paris",Europe
15 avenue d'Alsace,Strasbourg,67000,Grand Est,,France,"15 avenue d'Alsace, 67000 Strasbourg",Europe
10 rue du Marchal de Lattre de Tassigny,Lille,59000,Hauts-de-France,,France,"10 rue du Marchal de Lattre de Tassigny, 59000 Lille",Europe
4 boulevard Vauban,Nouma,98800,Nouvelle-Caldonie,,France,"4 boulevard Vauban, 98800 Nouma",Europe
45 boulevard Carnot,Lille,59000,Hauts-de-France,,France,"45 boulevard Carnot, 59000 Lille",Europe
444 chemin Saint-Antoine,Cayenne,97300,Guyane,,France,"444 chemin Saint-Antoine, 97300 Cayenne",Europe
20 place des Halles,Strasbourg,67000,Grand Est,,France,"20 place des Halles, 67000 Strasbourg",Europe
70 avenue de Hambourg,Marseille,13001,Provence-Alpes-Cte d'Azur,,France,"70 avenue de Hambourg, 13001 Marseille",Europe
1 Place Hans-Jean Arp,Strasbourg,67000,Grand Est,,France,"1 Place Hans-Jean Arp, 67000 Strasbourg",Europe
32 rue du Moulin,Dannemois,91490,le-de-France,,France,"32 rue du Moulin, 91490 Dannemois",Europe
3 avenue Ambroise Par,Marseille,13001,Provence-Alpes-Cte d'Azur,,France,"3 avenue Ambroise Par, 13001 Marseille",Europe
6 place Sbastien Brant,Strasbourg,67000,Grand Est,,France,"6 place Sbastien Brant, 67000 Strasbourg",Europe
65 avenue Franklin-D.-Roosevelt,Paris,75001,le-de-France,,France,"65 avenue Franklin-D.-Roosevelt, 75001 Paris",Europe
20 boulevard Carmagnole,Marseille,13001,Provence-Alpes-Cte d'Azur,,France,"20 boulevard Carmagnole, 13001 Marseille",Europe
26 rue Louis Blanc,Lyon,69001,Auvergne-Rhne-Alpes,,France,"26 rue Louis Blanc, 69001 Lyon",Europe
35 rue Bautain,Strasbourg,67000,Grand Est,,France,"35 rue Bautain, 67000 Strasbourg",Europe
25 boulevard Carmagnole,Marseille,13001,Provence-Alpes-Cte d'Azur,,France,"25 boulevard Carmagnole, 13001 Marseille",Europe
29 avenue de la Paix,Strasbourg,67000,Grand Est,,France,"29 avenue de la Paix, 67000 Strasbourg",Europe
79 rue Crillon,Lyon,69001,Auvergne-Rhne-Alpes,,France,"79 rue Crillon, 69001 Lyon",Europe
29 rue de Bonnel,Lyon,69001,Auvergne-Rhne-Alpes,,France,"29 rue de Bonnel, 69001 Lyon",Europe
25 rue Trubner,Strasbourg,67000,Grand Est,,France,"25 rue Trubner, 67000 Strasbourg",Europe
157 boulevard Michelet,Marseille,13001,Provence-Alpes-Cte d'Azur,,France,"157 boulevard Michelet, 13001 Marseille",Europe
146 rue Paradis,Marseille,13001,Provence-Alpes-Cte d'Azur,,France,"146 rue Paradis, 13001 Marseille",Europe
56 rue d'Alger,Marseille,13001,Provence-Alpes-Cte d'Azur,,France,"56 rue d'Alger, 13001 Marseille",Europe
72 boulevard Gambetta,Nice,06000,Provence-Alpes-Cte d'Azur,,France,"72 boulevard Gambetta, 06000 Nice",Europe
5 rue du Commandant Faurax,Lyon,69001,Auvergne-Rhne-Alpes,,France,"5 rue du Commandant Faurax, 69001 Lyon",Europe
7 boulevard Georges-Clemenceau,Metz,57000,Grand Est,,France,"7 boulevard Georges-Clemenceau, 57000 Metz",Europe
5 boulevard mile-Augier,Paris,75001,le-de-France,,France,"5 boulevard mile-Augier, 75001 Paris",Europe
18 avenue des Fleurs,Nice,06000,Provence-Alpes-Cte d'Azur,,France,"18 avenue des Fleurs, 06000 Nice",Europe
8 boulevard d'Athnes,Marseille,13001,Provence-Alpes-Cte d'Azur,,France,"8 boulevard d'Athnes, 13001 Marseille",Europe
14 avenue du Marchal Foch,Lyon,69001,Auvergne-Rhne-Alpes,,France,"14 avenue du Marchal Foch, 69001 Lyon",Europe
33 boulevard des Belges,Lyon,69001,Auvergne-Rhne-Alpes,,France,"33 boulevard des Belges, 69001 Lyon",Europe
38 rue Grignan,Marseille,13001,Provence-Alpes-Cte d'Azur,,France,"38 rue Grignan, 13001 Marseille",Europe
6 boulevard Rivet,Marseille,13001,Provence-Alpes-Cte d'Azur,,France,"6 boulevard Rivet, 13001 Marseille",Europe
65 alle de la Robertsau,Strasbourg,67000,Grand Est,,France,"65 alle de la Robertsau, 67000 Strasbourg",Europe
234 boulevard Prier,Marseille,13001,Provence-Alpes-Cte d'Azur,,France,"234 boulevard Prier, 13001 Marseille",Europe
51 rue de Varenne,Paris,75001,le-de-France,,France,"51 rue de Varenne, 75001 Paris",Europe
35 cours de Verdun,Bordeaux,33000,Nouvelle-Aquitaine,,France,"35 cours de Verdun, 33000 Bordeaux",Europe
338 avenue du Prado,Marseille,13001,Provence-Alpes-Cte d'Azur,,France,"338 avenue du Prado, 13001 Marseille",Europe
6 quai Mullenheim,Strasbourg,67000,Grand Est,,France,"6 quai Mullenheim, 67000 Strasbourg",Europe
41 alle de la Robertsau,Strasbourg,67000,Grand Est,,France,"41 alle de la Robertsau, 67000 Strasbourg",Europe
112 boulevard des Dames,Marseille,13001,Provence-Alpes-Cte d'Azur,,France,"112 boulevard des Dames, 13001 Marseille",Europe
15 avenue Frdric Mistral,Marseille,13001,Provence-Alpes-Cte d'Azur,,France,"15 avenue Frdric Mistral, 13001 Marseille",Europe
166 avenue de Hambourg,Marseille,13001,Provence-Alpes-Cte d'Azur,,France,"166 avenue de Hambourg, 13001 Marseille",Europe
142Bld du Prsident Wilson,Bordeaux,33000,Nouvelle-Aquitaine,,France,"142Bld du Prsident Wilson, 33000 Bordeaux",Europe
97 rue Garibaldi,Lyon,69001,Auvergne-Rhne-Alpes,,France,"97 rue Garibaldi, 69001 Lyon",Europe
22 rue de l'Amiral-Hamelin,Paris,75001,le-de-France,,France,"22 rue de l'Amiral-Hamelin, 75001 Paris",Europe
2 avenue du Parc Borely,Marseille,13001,Provence-Alpes-Cte d'Azur,,France,"2 avenue du Parc Borely, 13001 Marseille",Europe
3 rue de la Libration,Fort-de-France,97200,Martinique,,France,"3 rue de la Libration, 97200 Fort-de-France",Europe
11 quai des Belges,Marseille,13001,Provence-Alpes-Cte d'Azur,,France,"11 quai des Belges, 13001 Marseille",Europe
12 rue de Berri,Paris,75001,le-de-France,,France,"12 rue de Berri, 75001 Paris",Europe
11 rue Henri Rodel,Bordeaux,33000,Nouvelle-Aquitaine,,France,"11 rue Henri Rodel, 33000 Bordeaux",Europe
16 rue Wimpheling,Strasbourg,67000,Grand Est,,France,"16 rue Wimpheling, 67000 Strasbourg",Europe
71 rue Crillon,Lyon,69001,Auvergne-Rhne-Alpes,,France,"71 rue Crillon, 69001 Lyon",Europe
6 rue Georges-Berger,Paris,75001,le-de-France,,France,"6 rue Georges-Berger, 75001 Paris",Europe
2 rue Nicphore Nipce,Saint-Loup-de-Varennes,71240,Bourgogne-Franche-Comt,,France,"2 rue Nicphore Nipce, 71240 Saint-Loup-de-Varennes",Europe
35 avenue de Villiers,Paris,75001,le-de-France,,France,"35 avenue de Villiers, 75001 Paris",Europe
12 rue Shoelcher,Pointe--Pitre,97110,Guadeloupe,,France,"12 rue Shoelcher, 97110 Pointe--Pitre",Europe
12 avenue Lopold Hder,Cayenne,97300,Guyane,,France,"12 avenue Lopold Hder, 97300 Cayenne",Europe
20 quai Franois-Mitterrand,Nantes,44000,Pays de la Loire,,France,"20 quai Franois-Mitterrand, 44000 Nantes",Europe
363 avenue du Prado,Marseille,13001,Provence-Alpes-Cte d'Azur,,France,"363 avenue du Prado, 13001 Marseille",Europe
87 rue de Sze,Lyon,69001,Auvergne-Rhne-Alpes,,France,"87 rue de Sze, 69001 Lyon",Europe
29 Alle de Chartres,Bordeaux,33000,Nouvelle-Aquitaine,,France,"29 Alle de Chartres, 33000 Bordeaux",Europe
10 rue Auguste Lamey,Strasbourg,67000,Grand Est,,France,"10 rue Auguste Lamey, 67000 Strasbourg",Europe
44 rue de Svres,Boulogne-Billancourt,92100,le-de-France,,France,"44 rue de Svres, 92100 Boulogne-Billancourt",Europe
120 rue de Solfrino,Lille,59000,Hauts-de-France,,France,"120 rue de Solfrino, 59000 Lille",Europe
7 rue Vauban,Lyon,69001,Auvergne-Rhne-Alpes,,France,"7 rue Vauban, 69001 Lyon",Europe
363 rue Paradis,Marseille,13001,Provence-Alpes-Cte d'Azur,,France,"363 rue Paradis, 13001 Marseille",Europe
11 rue d'Argentine,Paris,75001,le-de-France,,France,"11 rue d'Argentine, 75001 Paris",Europe
37 alle de la Robertsau,Strasbourg,67000,Grand Est,,France,"37 alle de la Robertsau, 67000 Strasbourg",Europe
1 rue Notre-Dame,Bordeaux,33000,Nouvelle-Aquitaine,,France,"1 rue Notre-Dame, 33000 Bordeaux",Europe
16 rue Sainte Anne,Toulouse,31000,Occitanie,,France,"16 rue Sainte Anne, 31000 Toulouse",Europe
12 rue Franklin,Perpignan,66000,Occitanie,,France,"12 rue Franklin, 66000 Perpignan",Europe
6 place Royale,Pau,64000,Nouvelle-Aquitaine,,France,"6 place Royale, 64000 Pau",Europe
1 rue Louis Gurin,Villeurbanne,69100,Auvergne-Rhne-Alpes,,France,"1 rue Louis Gurin, 69100 Villeurbanne",Europe
38 rue douard Delanglade,Marseille,13001,Provence-Alpes-Cte d'Azur,,France,"38 rue douard Delanglade, 13001 Marseille",Europe
13 quai Klber,Strasbourg,67000,Grand Est,,France,"13 quai Klber, 67000 Strasbourg",Europe
16 rue d'Anjou,Paris,75001,le-de-France,,France,"16 rue d'Anjou, 75001 Paris",Europe
53 rue Hoche,Bagnolet,93170,le-de-France,,France,"53 rue Hoche, 93170 Bagnolet",Europe
105 rue de Siam,Brest,29200,Bretagne,,France,"105 rue de Siam, 29200 Brest",Europe
8 rue Blaise-Pascal,Rouen,76000,Normandie,,France,"8 rue Blaise-Pascal, 76000 Rouen",Europe
24 rue Vernier,Paris,75001,le-de-France,,France,"24 rue Vernier, 75001 Paris",Europe
27 rue de la Rpublique,Avignon,84000,Provence-Alpes-Cte d'Azur,,France,"27 rue de la Rpublique, 84000 Avignon",Europe
1 place de la Montagne-Verte,Colmar,68000,Grand Est,,France,"1 place de la Montagne-Verte, 68000 Colmar",Europe
14 place du postel,Apt,84400,Provence-Alpes-Cte d'Azur,,France,"14 place du postel, 84400 Apt",Europe
3 place du Docteur-Roclore,Saulieu,21210,Bourgogne-Franche-Comt,,France,"3 place du Docteur-Roclore, 21210 Saulieu",Europe
112 rue du Collge,Carpentras,84200,Provence-Alpes-Cte d'Azur,,France,"112 rue du Collge, 84200 Carpentras",Europe
9 rue Dubois,Villeurbanne,69100,Auvergne-Rhne-Alpes,,France,"9 rue Dubois, 69100 Villeurbanne",Europe
2 alle de Kernenez,Quimper,29000,Bretagne,,France,"2 alle de Kernenez, 29000 Quimper",Europe
24 Rond-point de l'amiti,Carpentras,84200,Provence-Alpes-Cte d'Azur,,France,"24 Rond-point de l'amiti, 84200 Carpentras",Europe
20 Cours Pasteur Bordeaux,Bordeaux,33000,Nouvelle-Aquitaine,,France,"20 Cours Pasteur Bordeaux, 33000 Bordeaux",Europe
4 rue Ferdinand-Gambon,Paris,75001,le-de-France,,France,"4 rue Ferdinand-Gambon, 75001 Paris",Europe
19 chausse de la Muette,Paris,75001,le-de-France,,France,"19 chausse de la Muette, 75001 Paris",Europe
78 rue d'Auteuil,Paris,75001,le-de-France,,France,"78 rue d'Auteuil, 75001 Paris",Europe
128 avenue de Saint-Ouen,Paris,75001,le-de-France,,France,"128 avenue de Saint-Ouen, 75001 Paris",Europe
397 rue de Vaugirard,Paris,75001,le-de-France,,France,"397 rue de Vaugirard, 75001 Paris",Europe
232 rue Vercingtorix,Paris,75001,le-de-France,,France,"232 rue Vercingtorix, 75001 Paris",Europe
11 rue Claude-Decaen,Paris,75001,le-de-France,,France,"11 rue Claude-Decaen, 75001 Paris",Europe
95 rue Michel-Ange,Paris,75001,le-de-France,,France,"95 rue Michel-Ange, 75001 Paris",Europe
92 Rue de Courcelles,Paris,75001,le-de-France,,France,"92 Rue de Courcelles, 75001 Paris",Europe
11 avenue George-V,Paris,75001,le-de-France,,France,"11 avenue George-V, 75001 Paris",Europe
52 avenue Victor-Hugo,Paris,75001,le-de-France,,France,"52 avenue Victor-Hugo, 75001 Paris",Europe
9 place de l'Universit,Strasbourg,67000,Grand Est,,France,"9 place de l'Universit, 67000 Strasbourg",Europe
34 cours Albert-Ier,Paris,75001,le-de-France,,France,"34 cours Albert-Ier, 75001 Paris",Europe
25 rue des Favorites,Paris,75001,le-de-France,,France,"25 rue des Favorites, 75001 Paris",Europe
22 rue de l'lyse,Paris,75001,le-de-France,,France,"22 rue de l'lyse, 75001 Paris",Europe
54 rue de la Faisanderie,Paris,75001,le-de-France,,France,"54 rue de la Faisanderie, 75001 Paris",Europe
1 place d'Andorre,Paris,75001,le-de-France,,France,"1 place d'Andorre, 75001 Paris",Europe
9 rue de Tilsitt,Paris,75001,le-de-France,,France,"9 rue de Tilsitt, 75001 Paris",Europe
34 avenue de New-York,Paris,75001,le-de-France,,France,"34 avenue de New-York, 75001 Paris",Europe
34 avenue de Messine,Paris,75001,le-de-France,,France,"34 avenue de Messine, 75001 Paris",Europe
87 avenue Victor-Hugo,Paris,75001,le-de-France,,France,"87 avenue Victor-Hugo, 75001 Paris",Europe
8 rue Alfred-Roll,Paris,75001,le-de-France,,France,"8 rue Alfred-Roll, 75001 Paris",Europe
17 rue de la Victoire.,Saint-Dizier,52100,Grand Est,,France,"17 rue de la Victoire., 52100 Saint-Dizier",Europe
159 boulevard Haussmann,Paris,75001,le-de-France,,France,"159 boulevard Haussmann, 75001 Paris",Europe
645 rue Gaston Dereudre,Loon-Plage,59279,Hauts-de-France,,France,"645 rue Gaston Dereudre, 59279 Loon-Plage",Europe
12 avenue Georges-Pompidou,Prigueux,24000,Nouvelle-Aquitaine,,France,"12 avenue Georges-Pompidou, 24000 Prigueux",Europe
1 rue Jean Burguet,Bordeaux,33000,Nouvelle-Aquitaine,,France,"1 rue Jean Burguet, 33000 Bordeaux",Europe
48 Chemin Haut,Strasbourg,67000,Grand Est,,France,"48 Chemin Haut, 67000 Strasbourg",Europe
18 avenue Jules Ferry,Rennes,35000,Bretagne,,France,"18 avenue Jules Ferry, 35000 Rennes",Europe
32 bis boulevard de Picpus,Paris,75001,le-de-France,,France,"32 bis boulevard de Picpus, 75001 Paris",Europe
26 place Monge,Beaune,21200,Bourgogne-Franche-Comt,,France,"26 place Monge, 21200 Beaune",Europe
24 quai de la Fosse,Nantes,44000,Pays de la Loire,,France,"24 quai de la Fosse, 44000 Nantes",Europe
2 rue Vivienne,Paris,75001,le-de-France,,France,"2 rue Vivienne, 75001 Paris",Europe
14 Rue Paul-et-Pierre-Guichard,Saint-tienne,42000,Auvergne-Rhne-Alpes,,France,"14 Rue Paul-et-Pierre-Guichard, 42000 Saint-tienne",Europe
30 rue des Perchamps,Paris,75001,le-de-France,,France,"30 rue des Perchamps, 75001 Paris",Europe
65 rue des Belles-Feuilles,Paris,75001,le-de-France,,France,"65 rue des Belles-Feuilles, 75001 Paris",Europe
12 rue Lord-Byron,Paris,75001,le-de-France,,France,"12 rue Lord-Byron, 75001 Paris",Europe
18 avenue de Tourville,Paris,75001,le-de-France,,France,"18 avenue de Tourville, 75001 Paris",Europe
7 ter Rue Lonard-de-Vinci,Paris,75001,le-de-France,,France,"7 ter Rue Lonard-de-Vinci, 75001 Paris",Europe
154 rue de Longchamp,Paris,75001,le-de-France,,France,"154 rue de Longchamp, 75001 Paris",Europe
84 avenue Georges-Clemenceau,Reims,51100,Grand Est,,France,"84 avenue Georges-Clemenceau, 51100 Reims",Europe
82 rue Laugier,Paris,75001,le-de-France,,France,"82 rue Laugier, 75001 Paris",Europe
8 villa Sad,Paris,75001,le-de-France,,France,"8 villa Sad, 75001 Paris",Europe
89 rue du Cherche-Midi,Paris,75001,le-de-France,,France,"89 rue du Cherche-Midi, 75001 Paris",Europe
26 rue du Chteau,Bohain-en-Vermandois,02110,Hauts-de-France,,France,"26 rue du Chteau, 02110 Bohain-en-Vermandois",Europe
26 bis avenue Raphal,Paris,75001,le-de-France,,France,"26 bis avenue Raphal, 75001 Paris",Europe
73 rue d'Auteuil,Paris,75001,le-de-France,,France,"73 rue d'Auteuil, 75001 Paris",Europe
102 avenue Raymond-Poincar,Paris,75001,le-de-France,,France,"102 avenue Raymond-Poincar, 75001 Paris",Europe
5 rue du Murgin,Moirans-en-Montagne,39260,Bourgogne-Franche-Comt,,France,"5 rue du Murgin, 39260 Moirans-en-Montagne",Europe
19 avenue Foch,Paris,75001,le-de-France,,France,"19 avenue Foch, 75001 Paris",Europe
117 rue Saint-Lazare,Paris,75001,le-de-France,,France,"117 rue Saint-Lazare, 75001 Paris",Europe
173 avenue Victor-Hugo,Paris,75001,le-de-France,,France,"173 avenue Victor-Hugo, 75001 Paris",Europe
13 avenue Raymond-Poincar,Paris,75001,le-de-France,,France,"13 avenue Raymond-Poincar, 75001 Paris",Europe
125 rue de Grenelle,Paris,75001,le-de-France,,France,"125 rue de Grenelle, 75001 Paris",Europe
6 rue de la porte de la Monnaie,Bordeaux,33000,Nouvelle-Aquitaine,,France,"6 rue de la porte de la Monnaie, 33000 Bordeaux",Europe
12 place du Gnral-Catroux,Paris,75001,le-de-France,,France,"12 place du Gnral-Catroux, 75001 Paris",Europe
26 rue Dumont-d'Urville,Paris,75001,le-de-France,,France,"26 rue Dumont-d'Urville, 75001 Paris",Europe
42 rue Boileau,Paris,75001,le-de-France,,France,"42 rue Boileau, 75001 Paris",Europe
35 avenue Charles-Floquet,Paris,75001,le-de-France,,France,"35 avenue Charles-Floquet, 75001 Paris",Europe
37 bis rue Paul-Valry,Paris,75001,le-de-France,,France,"37 bis rue Paul-Valry, 75001 Paris",Europe
32 cours Albert-Ier,Paris,75001,le-de-France,,France,"32 cours Albert-Ier, 75001 Paris",Europe
6 rue Roger Bteille,Blagnac,31700,Occitanie,,France,"6 rue Roger Bteille, 31700 Blagnac",Europe
11 rue Alfred-Dehodencq,Paris,75001,le-de-France,,France,"11 rue Alfred-Dehodencq, 75001 Paris",Europe
50 avenue d'Ina,Paris,75001,le-de-France,,France,"50 avenue d'Ina, 75001 Paris",Europe
3 rue Freycinet,Paris,75001,le-de-France,,France,"3 rue Freycinet, 75001 Paris",Europe
1 rue de Stal,Paris,75001,le-de-France,,France,"1 rue de Stal, 75001 Paris",Europe
94 rue Saint-Lazare,Paris,75001,le-de-France,,France,"94 rue Saint-Lazare, 75001 Paris",Europe
29 boulevard de Courcelles,Paris,75001,le-de-France,,France,"29 boulevard de Courcelles, 75001 Paris",Europe
24 rue de la Grande-Truanderie,Paris,75001,le-de-France,,France,"24 rue de la Grande-Truanderie, 75001 Paris",Europe
51 rue de la Faisanderie,Paris,75001,le-de-France,,France,"51 rue de la Faisanderie, 75001 Paris",Europe
1 rue Franois-Ier,Paris,75001,le-de-France,,France,"1 rue Franois-Ier, 75001 Paris",Europe
51 avenue Mozart,Paris,75001,le-de-France,,France,"51 avenue Mozart, 75001 Paris",Europe
125 rue d'Avron,Paris,75001,le-de-France,,France,"125 rue d'Avron, 75001 Paris",Europe
6 rue Cimarosa,Paris,75001,le-de-France,,France,"6 rue Cimarosa, 75001 Paris",Europe
101 Boulevard Raspail,Paris,75001,le-de-France,,France,"101 Boulevard Raspail, 75001 Paris",Europe
18 rue du Sergent-Bauchat,Paris,75001,le-de-France,,France,"18 rue du Sergent-Bauchat, 75001 Paris",Europe
15 avenue Charles-Floquet,Paris,75001,le-de-France,,France,"15 avenue Charles-Floquet, 75001 Paris",Europe
10 rue du Sanglier,Strasbourg,67000,Grand Est,,France,"10 rue du Sanglier, 67000 Strasbourg",Europe
40 rue de la Plage,Collonges-au-Mont-d'Or,69660,Auvergne-Rhne-Alpes,,France,"40 rue de la Plage, 69660 Collonges-au-Mont-d'Or",Europe
9 rue de Longchamp,Paris,75001,le-de-France,,France,"9 rue de Longchamp, 75001 Paris",Europe
4 rue de Koenigshoffen,Strasbourg,67000,Grand Est,,France,"4 rue de Koenigshoffen, 67000 Strasbourg",Europe
17 rue Auguste-Vacquerie,Paris,75001,le-de-France,,France,"17 rue Auguste-Vacquerie, 75001 Paris",Europe
22 Avenue Marceau,Paris,75001,le-de-France,,France,"22 Avenue Marceau, 75001 Paris",Europe
3 rue de l'ancienne foire,Saint-Martin-en-Campagne,76370,Normandie,,France,"3 rue de l'ancienne foire, 76370 Saint-Martin-en-Campagne",Europe
51 quai des Grands-Augustins,Paris,75001,le-de-France,,France,"51 quai des Grands-Augustins, 75001 Paris",Europe
1 rue de la Station,Strasbourg,67000,Grand Est,,France,"1 rue de la Station, 67000 Strasbourg",Europe
1a Rue Coulaux,Strasbourg,67000,Grand Est,,France,"1a Rue Coulaux, 67000 Strasbourg",Europe
2 boulevard Tonnel,Tours,37000,Centre-Val de Loire,,France,"2 boulevard Tonnel, 37000 Tours",Europe
117 rue de la Gare,Guiscriff,56560,Bretagne,,France,"117 rue de la Gare, 56560 Guiscriff",Europe
15 rue Marchal-Foch,Vichy,03200,Auvergne-Rhne-Alpes,,France,"15 rue Marchal-Foch, 03200 Vichy",Europe
176 route de Ble,Colmar,68000,Grand Est,,France,"176 route de Ble, 68000 Colmar",Europe
12 rue Galile,Paris,75001,le-de-France,,France,"12 rue Galile, 75001 Paris",Europe
5A route de Saint-Loup,Vesoul,70000,Bourgogne-Franche-Comt,,France,"5A route de Saint-Loup, 70000 Vesoul",Europe
37 rue Marchal-Joffre Nantes,Nantes,44000,Pays de la Loire,,France,"37 rue Marchal-Joffre Nantes, 44000 Nantes",Europe
24 rue de l'chaud,Paris,75001,le-de-France,,France,"24 rue de l'chaud, 75001 Paris",Europe
50 avenue Klber,Paris,75001,le-de-France,,France,"50 avenue Klber, 75001 Paris",Europe
33 rue Jean Giraudoux,Paris,75001,le-de-France,,France,"33 rue Jean Giraudoux, 75001 Paris",Europe
2 place Plisson,Castres,81100,Occitanie,,France,"2 place Plisson, 81100 Castres",Europe
29 boulevard Ferdinand Lesseps,Marseille,13001,Provence-Alpes-Cte d'Azur,,France,"29 boulevard Ferdinand Lesseps, 13001 Marseille",Europe
4 avenue Adolphe-Max,Lyon,69001,Auvergne-Rhne-Alpes,,France,"4 avenue Adolphe-Max, 69001 Lyon",Europe
2 avenue de l'Europe,Bry-sur-Marne,94360,le-de-France,,France,"2 avenue de l'Europe, 94360 Bry-sur-Marne",Europe
148 rue Franois Desnoyer,Ste,34200,Occitanie,,France,"148 rue Franois Desnoyer, 34200 Ste",Europe
44 Rue du Sonnenberg,Truchtersheim,67370,Grand Est,,France,"44 Rue du Sonnenberg, 67370 Truchtersheim",Europe
137 avenue Joliot-Curie,Nanterre,92000,le-de-France,,France,"137 avenue Joliot-Curie, 92000 Nanterre",Europe
24 grande rue,Champagney,70290,Bourgogne-Franche-Comt,,France,"24 grande rue, 70290 Champagney",Europe
55 rue Marcel-Tribut,Tours,37000,Centre-Val de Loire,,France,"55 rue Marcel-Tribut, 37000 Tours",Europe
2 boulevard Clemenceau,Mutzig,67190,Grand Est,,France,"2 boulevard Clemenceau, 67190 Mutzig",Europe
33 avenue Rapp,Paris,75001,le-de-France,,France,"33 avenue Rapp, 75001 Paris",Europe
234 boulevard Albin Durand,Carpentras,84200,Provence-Alpes-Cte d'Azur,,France,"234 boulevard Albin Durand, 84200 Carpentras",Europe
3 rue de Noisiel,Paris,75001,le-de-France,,France,"3 rue de Noisiel, 75001 Paris",Europe
8 rue Crevaux,Paris,75001,le-de-France,,France,"8 rue Crevaux, 75001 Paris",Europe
4 Square Rapp,Paris,75001,le-de-France,,France,"4 Square Rapp, 75001 Paris",Europe
10 Rue Thodule-Ribot,Paris,75001,le-de-France,,France,"10 Rue Thodule-Ribot, 75001 Paris",Europe
5 rue de l'Exposition,Paris,75001,le-de-France,,France,"5 rue de l'Exposition, 75001 Paris",Europe
4 Rue Adolphe-Yvon,Paris,75001,le-de-France,,France,"4 Rue Adolphe-Yvon, 75001 Paris",Europe
62 Rue Boileau,Paris,75001,le-de-France,,France,"62 Rue Boileau, 75001 Paris",Europe
1 Avenue Rapp,Paris,75001,le-de-France,,France,"1 Avenue Rapp, 75001 Paris",Europe
94 Rue du Ranelagh,Paris,75001,le-de-France,,France,"94 Rue du Ranelagh, 75001 Paris",Europe
38 boulevard Suchet,Paris,75001,le-de-France,,France,"38 boulevard Suchet, 75001 Paris",Europe
104 avenue Raymond-Poincar,Paris,75001,le-de-France,,France,"104 avenue Raymond-Poincar, 75001 Paris",Europe
74 avenue Raymond-Poincar,Paris,75001,le-de-France,,France,"74 avenue Raymond-Poincar, 75001 Paris",Europe
2 boulevard Saint-Cyr-de-Coquard,Villeneuve-sur-Lot,47300,Nouvelle-Aquitaine,,France,"2 boulevard Saint-Cyr-de-Coquard, 47300 Villeneuve-sur-Lot",Europe
145 avenue de Suffren,Paris,75001,le-de-France,,France,"145 avenue de Suffren, 75001 Paris",Europe
5 rue de la Faisanderie,Paris,75001,le-de-France,,France,"5 rue de la Faisanderie, 75001 Paris",Europe
22 Boulevard de Courcelles,Paris,75001,le-de-France,,France,"22 Boulevard de Courcelles, 75001 Paris",Europe
2 avenue de La Motte-Picquet,Paris,75001,le-de-France,,France,"2 avenue de La Motte-Picquet, 75001 Paris",Europe
1 rue Saint-Dominique,Paris,75001,le-de-France,,France,"1 rue Saint-Dominique, 75001 Paris",Europe
109 Avenue Henri-Martin,Paris,75001,le-de-France,,France,"109 Avenue Henri-Martin, 75001 Paris",Europe
34 avenue Bugeaud,Paris,75001,le-de-France,,France,"34 avenue Bugeaud, 75001 Paris",Europe
45 rue de Courcelles,Paris,75001,le-de-France,,France,"45 rue de Courcelles, 75001 Paris",Europe
4 rue Notre-Dame-des-Victoires,Paris,75001,le-de-France,,France,"4 rue Notre-Dame-des-Victoires, 75001 Paris",Europe
57 avenue Marceau,Paris,75001,le-de-France,,France,"57 avenue Marceau, 75001 Paris",Europe
174 rue de Courcelles,Paris,75001,le-de-France,,France,"174 rue de Courcelles, 75001 Paris",Europe
7 Square Thiers,Paris,75001,le-de-France,,France,"7 Square Thiers, 75001 Paris",Europe
17 rue de La Baume,Paris,75001,le-de-France,,France,"17 rue de La Baume, 75001 Paris",Europe
7 Rue de Monceau,Paris,75001,le-de-France,,France,"7 Rue de Monceau, 75001 Paris",Europe
6 Villa Sad,Paris,75001,le-de-France,,France,"6 Villa Sad, 75001 Paris",Europe
28 rue Bois-Le-Vent,Paris,75001,le-de-France,,France,"28 rue Bois-Le-Vent, 75001 Paris",Europe
5 avenue Gourgaud,Paris,75001,le-de-France,,France,"5 avenue Gourgaud, 75001 Paris",Europe
5 rue Lonard-de-Vinci,Paris,75001,le-de-France,,France,"5 rue Lonard-de-Vinci, 75001 Paris",Europe
15 rue Alfred-Dehodencq,Paris,75001,le-de-France,,France,"15 rue Alfred-Dehodencq, 75001 Paris",Europe
60 rue de Courcelles,Paris,75001,le-de-France,,France,"60 rue de Courcelles, 75001 Paris",Europe
59 rue Pierre-Charron,Paris,75001,le-de-France,,France,"59 rue Pierre-Charron, 75001 Paris",Europe
14 avenue d'Eylau,Paris,75001,le-de-France,,France,"14 avenue d'Eylau, 75001 Paris",Europe
13 rue Picot,Paris,75001,le-de-France,,France,"13 rue Picot, 75001 Paris",Europe
16 rue Spontini,Paris,75001,le-de-France,,France,"16 rue Spontini, 75001 Paris",Europe
8 rue Greuze,Paris,75001,le-de-France,,France,"8 rue Greuze, 75001 Paris",Europe
13 Rue Santeuil,Paris,75001,le-de-France,,France,"13 Rue Santeuil, 75001 Paris",Europe
28 rue de Charlieu,Roanne,42300,Auvergne-Rhne-Alpes,,France,"28 rue de Charlieu, 42300 Roanne",Europe
206 Le Petit Fahys,Fougerolles,70220,Bourgogne-Franche-Comt,,France,"206 Le Petit Fahys, 70220 Fougerolles",Europe
1bis rue des Trinitaires,Metz,57000,Grand Est,,France,"1bis rue des Trinitaires, 57000 Metz",Europe
6 boulevard Lon-Bureau,Nantes,44000,Pays de la Loire,,France,"6 boulevard Lon-Bureau, 44000 Nantes",Europe
125 avenue de la Blies,Sarreguemines,57200,Grand Est,,France,"125 avenue de la Blies, 57200 Sarreguemines",Europe
9 rue Philibert-Guide,Chalon-sur-Sane,71100,Bourgogne-Franche-Comt,,France,"9 rue Philibert-Guide, 71100 Chalon-sur-Sane",Europe
89 rue de Verdun,Carcassonne,11000,Occitanie,,France,"89 rue de Verdun, 11000 Carcassonne",Europe
30 bis rue du Cardinal-Lemoine,Paris,75001,le-de-France,,France,"30 bis rue du Cardinal-Lemoine, 75001 Paris",Europe
23 rue Campagne-Premire,Paris,75001,le-de-France,,France,"23 rue Campagne-Premire, 75001 Paris",Europe
198 av. du Taillan,Eysines,33320,Nouvelle-Aquitaine,,France,"198 av. du Taillan, 33320 Eysines",Europe
3 rue de l'cole de droit,Dijon,21000,Bourgogne-Franche-Comt,,France,"3 rue de l'cole de droit, 21000 Dijon",Europe
530 chemin Carrires du Salin,Grsy-sur-Isre,73460,Auvergne-Rhne-Alpes,,France,"530 chemin Carrires du Salin, 73460 Grsy-sur-Isre",Europe
10 rue du Mont,pinay-sur-Seine,93800,le-de-France,,France,"10 rue du Mont, 93800 pinay-sur-Seine",Europe
28 rue des Ttes,Colmar,68000,Grand Est,,France,"28 rue des Ttes, 68000 Colmar",Europe
165 Boulevard Malesherbes,Paris,75001,le-de-France,,France,"165 Boulevard Malesherbes, 75001 Paris",Europe
558 route de Findrol,Contamine-sur-Arve,74130,Auvergne-Rhne-Alpes,,France,"558 route de Findrol, 74130 Contamine-sur-Arve",Europe
84 boulevard Adolphe-Pinard,Paris,75001,le-de-France,,France,"84 boulevard Adolphe-Pinard, 75001 Paris",Europe
5 rue Pierre-et-Marie-Curie,Rambouillet,78120,le-de-France,,France,"5 rue Pierre-et-Marie-Curie, 78120 Rambouillet",Europe
38 rue Alsace Lorraine,Toulouse,31000,Occitanie,,France,"38 rue Alsace Lorraine, 31000 Toulouse",Europe
10 rue Servandoni arrondissement,Paris,75001,le-de-France,,France,"10 rue Servandoni arrondissement, 75001 Paris",Europe
68 Rue Saint-Thibault,Dreux,28100,Centre-Val de Loire,,France,"68 Rue Saint-Thibault, 28100 Dreux",Europe
100 rue Cartier Bresson,Pantin,93500,le-de-France,,France,"100 rue Cartier Bresson, 93500 Pantin",Europe
2 rue Mirabeau,Grasse,06130,Provence-Alpes-Cte d'Azur,,France,"2 rue Mirabeau, 06130 Grasse",Europe
17 rue Victor Hugo,Avignon,84000,Provence-Alpes-Cte d'Azur,,France,"17 rue Victor Hugo, 84000 Avignon",Europe
7 Rue des Filles-du-Calvaire,Paris,75001,le-de-France,,France,"7 Rue des Filles-du-Calvaire, 75001 Paris",Europe
104 rue du Gnral Leclerc,Armentires,59280,Hauts-de-France,,France,"104 rue du Gnral Leclerc, 59280 Armentires",Europe
15 rue de l'Armistice,Bron,69500,Auvergne-Rhne-Alpes,,France,"15 rue de l'Armistice, 69500 Bron",Europe
2 rue de Silly,Boulogne-Billancourt,92100,le-de-France,,France,"2 rue de Silly, 92100 Boulogne-Billancourt",Europe
12 Avenue Louis Lpine,Montbrison,42600,Auvergne-Rhne-Alpes,,France,"12 Avenue Louis Lpine, 42600 Montbrison",Europe
18 avenue Frdric-Dard,Bourgoin-Jallieu,38300,Auvergne-Rhne-Alpes,,France,"18 avenue Frdric-Dard, 38300 Bourgoin-Jallieu",Europe
40 rue de Verdun,Strasbourg,67000,Grand Est,,France,"40 rue de Verdun, 67000 Strasbourg",Europe
35 alle Jules-Guede,Toulouse,31000,Occitanie,,France,"35 alle Jules-Guede, 31000 Toulouse",Europe
24 rue de Pontaniou,Brest,29200,Bretagne,,France,"24 rue de Pontaniou, 29200 Brest",Europe
8 rue de la Chancellerie,Versailles,78000,le-de-France,,France,"8 rue de la Chancellerie, 78000 Versailles",Europe
24 quai Saint-Paul,La Turballe,44420,Pays de la Loire,,France,"24 quai Saint-Paul, 44420 La Turballe",Europe
17 rue Victor-Hugo,Bourgoin-Jallieu,38300,Auvergne-Rhne-Alpes,,France,"17 rue Victor-Hugo, 38300 Bourgoin-Jallieu",Europe
190 rue Gustave Parre,Bort-les-Orgues,19110,Nouvelle-Aquitaine,,France,"190 rue Gustave Parre, 19110 Bort-les-Orgues",Europe
52 boulevard du Grand Cerf,Poitiers,86000,Nouvelle-Aquitaine,,France,"52 boulevard du Grand Cerf, 86000 Poitiers",Europe
10 route de Carbon Blanc,Lormont,33310,Nouvelle-Aquitaine,,France,"10 route de Carbon Blanc, 33310 Lormont",Europe
3 place du Maschat,Tulle,19000,Nouvelle-Aquitaine,,France,"3 place du Maschat, 19000 Tulle",Europe
